[
    {
        "address": "和歌山県有田郡有田川町下津野1288-1",
        "cooperation": "済生会有田病院\n（和歌山県有田郡湯浅町吉川52-6）",
        "department": "内科",
        "doctor": "湯浅　研司",
        "first": "○",
        "name": "ゆあさクリニック",
        "postal_code": "643-0021",
        "revisit": "○",
        "tel": "0737-52-\n8880",
        "url": ""
    },
    {
        "address": "和歌山県有田郡有田川町天満305-4",
        "cooperation": "",
        "department": "小児科\n小児アレル\nギー科",
        "doctor": "平山　健二",
        "first": "○",
        "name": "赤ちゃんからの平山こどもクリニック",
        "postal_code": "643-0032",
        "revisit": "○",
        "tel": "0737-52-\n8666",
        "url": "http://www.hirayama-kodomo.jp"
    },
    {
        "address": "和歌山県有田郡湯浅町湯浅128-2",
        "cooperation": "和歌山県立医科大学附属病院（和歌山市紀三井寺\n811-1）\n日赤和歌山医療センター（和歌山市小松原通4-\n20）",
        "department": "耳鼻咽喉科\nアレルギー\n科",
        "doctor": "後藤　浩伸",
        "first": "○",
        "name": "耳鼻咽喉科ごとう医院",
        "postal_code": "643-0004",
        "revisit": "○",
        "tel": "0737-63-\n3838",
        "url": ""
    },
    {
        "address": "和歌山県有田郡湯浅町湯浅459",
        "cooperation": "",
        "department": "内科",
        "doctor": "平山　純二",
        "first": "○",
        "name": "平山内科皮膚泌尿器科",
        "postal_code": "643-0004",
        "revisit": "○",
        "tel": "0737-63-\n1103",
        "url": ""
    },
    {
        "address": "和歌山県有田郡有田川町庄574",
        "cooperation": "",
        "department": "内科",
        "doctor": "野田　倫代",
        "first": "×",
        "name": "野田医院",
        "postal_code": "643-0811",
        "revisit": "○",
        "tel": "0737-52-\n7578",
        "url": "http://www.naxnet.or.jp/~non/"
    },
    {
        "address": "和歌山県有田郡有田川町庄31",
        "cooperation": "",
        "department": "精神科",
        "doctor": "",
        "first": "×",
        "name": "和歌山県立こころの医療センター",
        "postal_code": "643-0811",
        "revisit": "○",
        "tel": "0737-52-\n3221",
        "url": "https://www.pref.wakayama.lg.jp/prefg/050112/050112.html"
    },
    {
        "address": "和歌山県有田郡有田川町清水379-2",
        "cooperation": "",
        "department": "内科\n小児科",
        "doctor": "中村　嘉典",
        "first": "○",
        "name": "なかむら内科クリニック",
        "postal_code": "643-0521",
        "revisit": "○",
        "tel": "0737-25-\n9030",
        "url": ""
    },
    {
        "address": "和歌山県田辺市たきない町２７－１",
        "cooperation": "",
        "department": "全科",
        "doctor": "担当医",
        "first": "×",
        "name": "独立行政法人国立病院機構南和歌山医療センター",
        "postal_code": "646-8558",
        "revisit": "〇",
        "tel": "0739-26-7050",
        "url": "https://minamiwakayama.hosp.go.jp/"
    },
    {
        "address": "和歌山県西牟婁郡上富田町岩田１７７６－１",
        "cooperation": "",
        "department": "精神科",
        "doctor": "宮本　聡\n宮本　知佐子",
        "first": "×",
        "name": "南紀医療福祉センター",
        "postal_code": "649-2102",
        "revisit": "○",
        "tel": "0739-47-2175",
        "url": "https://www.wfj.or.jp/"
    },
    {
        "address": "田辺市秋津町１８９－１６",
        "cooperation": "紀南病院\n南和歌山医療センター\n田辺中央病院\n白浜はまゆう病院",
        "department": "脳神経内科\nリハビリ科",
        "doctor": "小口　健",
        "first": "○",
        "name": "あきづクリニック",
        "postal_code": "646-0005",
        "revisit": "○",
        "tel": "0739-34-3090",
        "url": "https://www.akizu-clinic.com/"
    },
    {
        "address": "田辺市湊４７－３８",
        "cooperation": "",
        "department": "皮フ科",
        "doctor": "池畑　恭子",
        "first": "×",
        "name": "池畑医院",
        "postal_code": "646-0031",
        "revisit": "○",
        "tel": "0739-25-1217",
        "url": ""
    },
    {
        "address": "和歌山県西牟婁郡白浜町１４００",
        "cooperation": "",
        "department": "内科\n消化器科",
        "doctor": "三谷　健一郎",
        "first": "×",
        "name": "医療法人健仁会三谷医院",
        "postal_code": "649-2211",
        "revisit": "○",
        "tel": "",
        "url": "0739-42-3606https://www.mitani-clinic-shirahama.com/"
    },
    {
        "address": "田辺市下万呂３９３－５",
        "cooperation": "",
        "department": "脳神経外科",
        "doctor": "大浦　義典",
        "first": "×",
        "name": "医療法人桜菜会まろクリニック",
        "postal_code": "646-0004",
        "revisit": "○",
        "tel": "0739-81-1200",
        "url": "http://maroclinic.sakura.ne.jp/"
    },
    {
        "address": "田辺市目良３２－３２",
        "cooperation": "",
        "department": "内科\n胃腸科",
        "doctor": "長嶋　二郎",
        "first": "×",
        "name": "医療法人長嶋医院",
        "postal_code": "646-0058",
        "revisit": "○",
        "tel": "0739-24-3220",
        "url": ""
    },
    {
        "address": "和歌山県西牟婁郡上富田町朝来１４０７－１",
        "cooperation": "南和歌山医療センター\n紀南病院",
        "department": "内科\n眼科\n外科",
        "doctor": "中村　秀也\n中村　信男\n森　健一\n鈴間　孝臣",
        "first": "×",
        "name": "上富田クリニック",
        "postal_code": "649-2105",
        "revisit": "○",
        "tel": "0739-47-1100",
        "url": ""
    },
    {
        "address": "田辺市上屋敷３丁目１１番１４号",
        "cooperation": "",
        "department": "外科\n内科",
        "doctor": "辻　興",
        "first": "×",
        "name": "外科内科辻医院",
        "postal_code": "646-0036",
        "revisit": "○",
        "tel": "0739-22-0534",
        "url": ""
    },
    {
        "address": "田辺市あけぼの４６－１２",
        "cooperation": "紀南病院\n南和歌山医療センター",
        "department": "耳鼻咽喉科\nアレルギー科",
        "doctor": "坂口　幸作",
        "first": "×",
        "name": "坂口耳鼻咽喉科医院",
        "postal_code": "646-0021",
        "revisit": "○",
        "tel": "0739-22-8741",
        "url": ""
    },
    {
        "address": "田辺市本宮町本宮９２１番地の２",
        "cooperation": "",
        "department": "内科",
        "doctor": "山下　成人",
        "first": "○",
        "name": "田辺市本宮さくら診療所",
        "postal_code": "647-1731",
        "revisit": "○",
        "tel": "0735-42-8101",
        "url": ""
    },
    {
        "address": "田辺市下屋敷１４－２",
        "cooperation": "",
        "department": "内科",
        "doctor": "中西　善夫",
        "first": "×",
        "name": "中西内科胃腸科医院",
        "postal_code": "646-0032",
        "revisit": "○",
        "tel": "0739-25-2500",
        "url": ""
    },
    {
        "address": "田辺市下三栖１８１７",
        "cooperation": "",
        "department": "内科\n小児科",
        "doctor": "木下　真樹子\n木下　幾晴",
        "first": "×",
        "name": "野の花診療所",
        "postal_code": "646-0014",
        "revisit": "○",
        "tel": "0739-34-0555",
        "url": ""
    },
    {
        "address": "田辺市高雄一丁目5-2",
        "cooperation": "紀南病院\n南和歌山医療センター",
        "department": "外科\n内科",
        "doctor": "平畑　忍",
        "first": "×",
        "name": "平畑医院",
        "postal_code": "646-0028",
        "revisit": "○",
        "tel": "0739-24-0770",
        "url": ""
    },
    {
        "address": "和歌山県日高郡みなべ町東本庄５８９－１",
        "cooperation": "紀南病院",
        "department": "内科",
        "doctor": "東　冬彦",
        "first": "○",
        "name": "ひがし内科クリニック",
        "postal_code": "645-0021",
        "revisit": "○",
        "tel": "0739-74-3269",
        "url": ""
    },
    {
        "address": "和歌山県伊都郡高野町西富貴46",
        "cooperation": "なし",
        "department": "内科",
        "doctor": "田中　祥平",
        "first": "×",
        "name": "富貴診療所",
        "postal_code": "648-0401",
        "revisit": "〇",
        "tel": "0736-53-2013",
        "url": "なし"
    },
    {
        "address": "和歌山県橋本市学文路705",
        "cooperation": "",
        "department": "内科\n循環器内科",
        "doctor": "田中　英治",
        "first": "〇",
        "name": "医療法人せせらぎ会小林診療所",
        "postal_code": "648-0043",
        "revisit": "〇",
        "tel": "0736-32-0469",
        "url": ""
    }
]