[
    {
        "address": "徳島県阿南市日開野町筒路１９－１４",
        "cooperation": "徳島県立中央病院（徳島市蔵本町）\n徳島大学病院（徳島市蔵本町）",
        "department": "整形外科\nリハビリ\nリウマチ",
        "doctor": "梶川　智正",
        "first": "○",
        "name": "かじかわ整形外科",
        "postal_code": "774-0013",
        "revisit": "○",
        "tel": "0884-24-5750",
        "url": ""
    },
    {
        "address": "徳島県三好市池田町サラダ１６５１－２",
        "cooperation": "徳島県立三好病院（三好市池田町）",
        "department": "内科",
        "doctor": "安宅　芳夫\n安宅　比呂美",
        "first": "○",
        "name": "安宅循環器内科",
        "postal_code": "778-0003",
        "revisit": "○",
        "tel": "0883-72-6300",
        "url": ""
    },
    {
        "address": "徳島県徳島市城東町１丁目８－８",
        "cooperation": "",
        "department": "内科",
        "doctor": "仁木　由子\n猪井　順也",
        "first": "○",
        "name": "沖の洲病院",
        "postal_code": "770-0862",
        "revisit": "○",
        "tel": "088-622-7111",
        "url": "http://www.nmt.ne.jp/~nagioo/"
    },
    {
        "address": "徳島県徳島市昭和町４丁目２３－１",
        "cooperation": "徳島県立中央病院（徳島市蔵本町）\n徳島赤十字病院（小松島市）\n徳島市民病院（徳島市北常三島町）\n徳島大学病院（徳島市蔵本町）",
        "department": "内科\n小児科",
        "doctor": "佐野　隆宏",
        "first": "",
        "name": "幸地内科小児科",
        "postal_code": "770-0942",
        "revisit": "○",
        "tel": "088-626-0333",
        "url": "http://kochi03zensok.com/"
    },
    {
        "address": "徳島県徳島市北佐古二番町２－１５",
        "cooperation": "徳島県立中央病院（徳島市蔵本町）",
        "department": "内科\n小児科",
        "doctor": "小川　紘一\n坂東　智子",
        "first": "○",
        "name": "北佐古クリニック",
        "postal_code": "770-0012",
        "revisit": "○",
        "tel": "770-0012",
        "url": ""
    },
    {
        "address": "徳島県阿波市土成町土成字南原２３１",
        "cooperation": "",
        "department": "内科",
        "doctor": "",
        "first": "○",
        "name": "大野病院",
        "postal_code": "771-1506",
        "revisit": "○",
        "tel": "088-695-2112",
        "url": "http://hakubi-ohno-hp.com/"
    },
    {
        "address": "徳島県徳島市北矢三町３丁目３",
        "cooperation": "徳島県立中央病院（徳島市蔵本町）\n徳島市民病院（徳島市北常三島町）",
        "department": "内科",
        "doctor": "宇野　由佳",
        "first": "○",
        "name": "みどり内科クリニック",
        "postal_code": "770-0006",
        "revisit": "○",
        "tel": "088-634-1277",
        "url": "https://midorinc.com/"
    },
    {
        "address": "徳島県徳島市西須賀町下中須８５－５",
        "cooperation": "",
        "department": "眼科",
        "doctor": "井上　昌幸",
        "first": "症状によっては受診。\n症状によっては電話対応可能",
        "name": "兼松眼科",
        "postal_code": "770-8024",
        "revisit": "",
        "tel": "088-669-5111",
        "url": ""
    },
    {
        "address": "徳島県徳島市下助任町４丁目９－１",
        "cooperation": "",
        "department": "内科\n外科\n整形外科\n眼科",
        "doctor": "今井正雄、美摩一正、岸田\n和明、西内貴子、佐々木清\n実、松田知子、岸田典子、\n山下英也、阿部潤一、村野\n栄一、藤本尚己、大倉佳\n宏、堀内宏美、高原文治、\n田中宏美、美馬淳、中野万\n有里、岡田正彦、古川民\n夫、島海和広",
        "first": "",
        "name": "徳島健生病院",
        "postal_code": "770-8547",
        "revisit": "○",
        "tel": "088-622-7771",
        "url": "https://kenkou-seikyou.com/"
    },
    {
        "address": "徳島県美馬郡つるぎ町貞光字中須賀４８－２",
        "cooperation": "",
        "department": "内科",
        "doctor": "谷　隆三\n古出　雄三",
        "first": "",
        "name": "谷病院",
        "postal_code": "779-4101",
        "revisit": "○",
        "tel": "0883-62-2053",
        "url": ""
    },
    {
        "address": "徳島県徳島市国府町早渕字北カシヤ５６－１",
        "cooperation": "",
        "department": "内科\n消化器科\n内分泌内科\n循環器科\n耳鼻咽喉科\n腎臓内科",
        "doctor": "辻　泰弘\n増田　壽志\n新居　葉子\n田蒔　基行\n熊代　尚記\n久山　和重\n林　真也\n別宮　佳奈子",
        "first": "○",
        "name": "藍住たまき青空クリニック",
        "postal_code": "779-3125",
        "revisit": "○",
        "tel": "088-643-2588",
        "url": "https://tamaki-aozora.ne.jp/aizumi/"
    },
    {
        "address": "徳島県名西郡石井町高原字東高原１８１－２",
        "cooperation": "たまき青空病院（徳島市国府町）\n徳島県立中央病院（徳島市蔵本町）",
        "department": "内科\n小児科",
        "doctor": "上田　聡一郎",
        "first": "○",
        "name": "上田医院",
        "postal_code": "779-3205",
        "revisit": "○",
        "tel": "088-675-1130",
        "url": ""
    },
    {
        "address": "徳島県徳島市佐古二番町５－１１",
        "cooperation": "徳島市民病院（徳島市北常三島町）\n田岡病院（徳島市万代町）",
        "department": "内科\n外科",
        "doctor": "岡　信晃\n矢野　嘉朗",
        "first": "○",
        "name": "イツモスマイルクリニック",
        "postal_code": "770-0022",
        "revisit": "○",
        "tel": "088-679-1111",
        "url": ""
    },
    {
        "address": "徳島県徳島市西須賀町下中須１３－２",
        "cooperation": "",
        "department": "内科",
        "doctor": "後東　久嗣\n後東　俊博",
        "first": "○",
        "name": "じぞうばし内科外科",
        "postal_code": "770-8024",
        "revisit": "○",
        "tel": "088-669-2121",
        "url": "http://www.jizoubashi.com/"
    },
    {
        "address": "徳島県美馬市脇町字拝原１４１５－２",
        "cooperation": "",
        "department": "内科\n小児科\n精神科",
        "doctor": "佐藤　一樹",
        "first": "○",
        "name": "佐藤内科",
        "postal_code": "779-3601",
        "revisit": "○",
        "tel": "0883-52-1045",
        "url": "http://www.ichijyukai.com/internal-medicine.html"
    },
    {
        "address": "徳島県徳島市川内町加賀須野４３７－３",
        "cooperation": "徳島県立中央病院（徳島市蔵本町）\n徳島赤十字病院（小松島市）\n徳島市民病院（徳島市北常三島町）",
        "department": "内科\n小児科",
        "doctor": "岡部　達彦",
        "first": "○",
        "name": "岡部内科クリニック",
        "postal_code": "771-0130",
        "revisit": "○",
        "tel": "088-665-6008",
        "url": "https://okabec.jp/"
    },
    {
        "address": "徳島県徳島市川内町平石若宮１１５",
        "cooperation": "",
        "department": "内科",
        "doctor": "島田　久夫",
        "first": "○",
        "name": "島田内科",
        "postal_code": "771-0137",
        "revisit": "○",
        "tel": "088-665-1100",
        "url": "https://doctorsfile.jp/h/83882/"
    },
    {
        "address": "徳島県徳島市川内町加賀須野４１９－３",
        "cooperation": "",
        "department": "皮膚科",
        "doctor": "玉田",
        "first": "",
        "name": "徳島皮フ科クリニック",
        "postal_code": "771-0130",
        "revisit": "○",
        "tel": "088-665-5234",
        "url": "https://tdc21.com/clinic/"
    },
    {
        "address": "徳島県海部郡牟岐町大字中村字本村１４９－９",
        "cooperation": "",
        "department": "眼科",
        "doctor": "竹林　優",
        "first": "○",
        "name": "竹林眼科",
        "postal_code": "775-0006",
        "revisit": "○",
        "tel": "0884-72-2323",
        "url": ""
    },
    {
        "address": "徳島県徳島市入田町笠木２００－４",
        "cooperation": "徳島県立中央病院（徳島市蔵本町）",
        "department": "内科",
        "doctor": "佐藤　隆久",
        "first": "○",
        "name": "佐藤医院",
        "postal_code": "779-3133",
        "revisit": "○",
        "tel": "088-644-0422",
        "url": "http://tokushima-nishi.com/iryoukikan/satou.html"
    },
    {
        "address": "徳島県徳島市二軒屋町３丁目３３",
        "cooperation": "徳島県立中央病院（徳島市蔵本町）\n徳島赤十字病院（小松島市）\n徳島市民病院（徳島市北常三島町）",
        "department": "耳鼻科",
        "doctor": "関根\n島田",
        "first": "○",
        "name": "せきね耳鼻咽喉科医院",
        "postal_code": "770-0928",
        "revisit": "○",
        "tel": "088-654-1212",
        "url": "https://sekine-ent.com/"
    },
    {
        "address": "徳島県三好市三野町芝生１２４２－６",
        "cooperation": "",
        "department": "総合診療",
        "doctor": "田中　眞理子\n田中　裕基",
        "first": "",
        "name": "三野田中病院",
        "postal_code": "771-2304",
        "revisit": "○",
        "tel": "0883-77-2300",
        "url": ""
    },
    {
        "address": "徳島県小松島市金磯町１０－１９",
        "cooperation": "徳島赤十字病院（小松島市）",
        "department": "内科",
        "doctor": "加藤　好包\n山下　壽子\n矢田　清吾",
        "first": "○",
        "name": "小松島金磯病院",
        "postal_code": "773-0007",
        "revisit": "○",
        "tel": "0885-33-1211",
        "url": "http://www.kanaiso.or.jp/"
    },
    {
        "address": "徳島県鳴門市撫養町大桑島字北ノ浜63",
        "cooperation": "",
        "department": "耳鼻咽喉科",
        "doctor": "中川　英幸",
        "first": "",
        "name": "なかがわ耳鼻咽喉科クリニック",
        "postal_code": "772-0011",
        "revisit": "○",
        "tel": "088-684-3387",
        "url": "http://nakagawa-jibika.jp/"
    },
    {
        "address": "徳島県徳島市新浜本町2丁目3-8",
        "cooperation": "徳島県立中央病院（徳島市蔵本町）\n徳島市民病院（徳島市北常三島町）",
        "department": "外科\n内科",
        "doctor": "森　俊明",
        "first": "",
        "name": "新浜医院",
        "postal_code": "770-8007",
        "revisit": "○",
        "tel": "088-662-5577",
        "url": ""
    },
    {
        "address": "徳島県徳島市中昭和町２丁目９４",
        "cooperation": "",
        "department": "内科",
        "doctor": "林　正",
        "first": "",
        "name": "林内科",
        "postal_code": "770-0943",
        "revisit": "○",
        "tel": "088-626-0003",
        "url": ""
    },
    {
        "address": "徳島県鳴門市大津町吉永字四番越４７１－６",
        "cooperation": "",
        "department": "外科\n内科",
        "doctor": "橋本　真梧\n橋本　公昭",
        "first": "○",
        "name": "橋本医院",
        "postal_code": "772-0032",
        "revisit": "○",
        "tel": "088-685-5211",
        "url": "https://byoinnavi.jp/clinic/"
    },
    {
        "address": "徳島県徳島市国府町早淵字北カシヤ５６－１",
        "cooperation": "",
        "department": "内科",
        "doctor": "田蒔正治、滝下佳寛、山本\n修三、田蒔基行、石本武\n男、倉立真志、沖野實、和\n田美智子、井形次郎、大島\n隆志、片岡涼子、兼松義\n二、三﨑敦史、一森敏弘、\n福本誠二、兼松康久、明比\n祐子、手束文威、黒部裕\n嗣、乙田敏城、木内美瑞\n穂、佐藤正毅、藤井泰宏、\n田中亜紀、田蒔昌憲、小幡\n史明、三井由加里、阿部\nあかね、山田祐嗣、山口純\n代、辻誠士郎",
        "first": "○",
        "name": "たまき青空病院",
        "postal_code": "779-3125",
        "revisit": "○",
        "tel": "088-642-5050",
        "url": "https://tamaki-aozora.ne.jp/"
    },
    {
        "address": "徳島県海部郡牟岐町大字川長字山戸４８－３",
        "cooperation": "徳島県立海部病院（海部郡）",
        "department": "内科",
        "doctor": "",
        "first": "○",
        "name": "美海クリニック",
        "postal_code": "775-0004",
        "revisit": "○",
        "tel": "0884-72-3939",
        "url": "https://kaifu-med.or.jp/"
    },
    {
        "address": "徳島県徳島市幸町３丁目３４－１",
        "cooperation": "",
        "department": "眼科",
        "doctor": "三河　洋一\n三河　貴子",
        "first": "",
        "name": "三河眼科",
        "postal_code": "770-0847",
        "revisit": "○",
        "tel": "088-655-0088",
        "url": "http://wwwc.pikara.ne.jp/mikawaganka/"
    },
    {
        "address": "徳島県徳島市城南町３丁目５－２２",
        "cooperation": "",
        "department": "内科\n小児科",
        "doctor": "宮本　泰文",
        "first": "○",
        "name": "城南公園内科",
        "postal_code": "770-8064",
        "revisit": "○",
        "tel": "088-656-6661",
        "url": ""
    },
    {
        "address": "鳴門市撫養町斎田字大堤２２６徳島県徳島県",
        "cooperation": "",
        "department": "内あk\n外科",
        "doctor": "鵜飼　伸一",
        "first": "○",
        "name": "うがい医院",
        "postal_code": "772-0002",
        "revisit": "○",
        "tel": "088-686-2307",
        "url": "http://ugai-clinic.jp/"
    },
    {
        "address": "徳島県阿南市富岡町あ石１４－１",
        "cooperation": "",
        "department": "内あk\n小児科",
        "doctor": "原田　みどり",
        "first": "○",
        "name": "原田病院",
        "postal_code": "774-0030",
        "revisit": "○",
        "tel": "0884-22-0990",
        "url": ""
    },
    {
        "address": "徳島県徳島市八万町川南５６－１",
        "cooperation": "徳島県立中央病院（徳島市蔵本町）",
        "department": "内科\n小児あk",
        "doctor": "米田　賢治",
        "first": "○",
        "name": "米田内科クリニック",
        "postal_code": "770-8082",
        "revisit": "○",
        "tel": "088-668-8511",
        "url": ""
    },
    {
        "address": "徳島県板野郡松茂町広島字南ノ川４２－１",
        "cooperation": "徳島市民病院（徳島市北常三島町）",
        "department": "耳鼻科\n小児科\nアレルギー科",
        "doctor": "谷口　雅彦",
        "first": "○",
        "name": "谷口耳鼻咽喉科クリニック",
        "postal_code": "771-0220",
        "revisit": "○",
        "tel": "088-699-2787",
        "url": ""
    },
    {
        "address": "徳島県徳島市八万町大野９１－１",
        "cooperation": "徳島県立中央病院（徳島市蔵本町）",
        "department": "耳鼻咽喉科",
        "doctor": "川淵　崇",
        "first": "",
        "name": "かわぶち耳鼻咽喉科",
        "postal_code": "770-8070",
        "revisit": "○",
        "tel": "088-636-3387",
        "url": ""
    },
    {
        "address": "徳島県名西郡神山町下分字今井１６３徳島県",
        "cooperation": "",
        "department": "内科",
        "doctor": "河野　宗夫",
        "first": "○",
        "name": "神山医院",
        "postal_code": "771-3421",
        "revisit": "○",
        "tel": "088-677-0066",
        "url": ""
    },
    {
        "address": "徳島県徳島市国府町観音寺２２４－１",
        "cooperation": "たかはし内科（徳島市国府町）",
        "department": "内科",
        "doctor": "高橋　浩子",
        "first": "",
        "name": "ひろこ漢方内科クリニック",
        "postal_code": "779-3123",
        "revisit": "○",
        "tel": "088-624-8167",
        "url": "http://hiroko-kampo.com/"
    },
    {
        "address": "徳島県徳島市寺島本町西２丁目３７－１",
        "cooperation": "",
        "department": "整形外科",
        "doctor": "橘　敬三",
        "first": "",
        "name": "橘整形外科",
        "postal_code": "770-0831",
        "revisit": "○",
        "tel": "088-623-2462",
        "url": ""
    },
    {
        "address": "徳島県鳴門市撫養町斎田字西発６－１",
        "cooperation": "徳島県鳴門病院（鳴門市）",
        "department": "内科\n小児科",
        "doctor": "勝良　洋",
        "first": "",
        "name": "勝良医院",
        "postal_code": "772-0002",
        "revisit": "○",
        "tel": "088-686-1216",
        "url": ""
    },
    {
        "address": "徳島県徳島市八万町寺山２３１",
        "cooperation": "",
        "department": "泌尿器科\n腎臓内科\n総合診療科\n緩和医療科\n循環器内科\n整形外科\n麻酔科",
        "doctor": "上野　恵輝\n佐々木　雄太郎\n深谷友祐、角陸文哉、山本\n拓、濱尾　巧、村上佳秀、\n中逵弘能、榊学、金山博\n臣、楠原義人、津田恵、大\n豆本圭、高橋正幸、布川朋\n也、松浦元一、上田紗代、\n清水郁子、藤野良三、中井\n陽、高橋　健文、成瀬章、\n神山有史",
        "first": "",
        "name": "亀井病院",
        "postal_code": "770-8070",
        "revisit": "○",
        "tel": "088-668-1177",
        "url": "https://www.kameihospital.com/"
    },
    {
        "address": "徳島県徳島市中通町２丁目１１",
        "cooperation": "",
        "department": "皮膚科\n泌尿器科",
        "doctor": "仙﨑　聖子",
        "first": "",
        "name": "斎藤皮膚泌尿器科",
        "postal_code": "770-0844",
        "revisit": "○",
        "tel": "088-652-3790",
        "url": "https://byoinnavi.jp/clinic/95237"
    },
    {
        "address": "徳島県那賀郡那賀町木頭和無田字イワツシ1番地 0884-68-2102",
        "cooperation": "徳島県立海部病院(徳島県海部郡牟岐町大字中村字杉谷266)\n徳島県立中央病院（徳島県徳島市蔵本町1丁目10-3）",
        "department": "内科",
        "doctor": "平田　圭市郎",
        "first": "○",
        "name": "那賀町国民健康保険木頭診療所",
        "postal_code": "771-6403",
        "revisit": "○",
        "tel": "",
        "url": ""
    },
    {
        "address": "徳島県海部郡牟岐町大字牟岐浦字浜崎１２－１",
        "cooperation": "徳島県立中央病院（徳島市蔵本町）\n徳島県海部郡病院（海部郡）",
        "department": "内科",
        "doctor": "平田　圭市郎",
        "first": "○",
        "name": "北川医院",
        "postal_code": "775-0011",
        "revisit": "○",
        "tel": "0884-72-0260",
        "url": ""
    },
    {
        "address": "徳島県板野郡板野町下庄字栖養２２－１",
        "cooperation": "東徳島医療センター（板野郡板野町）\n徳島県立中央病院（徳島市蔵本町）",
        "department": "整形外科\n内科\n皮フ科",
        "doctor": "新野　浩史",
        "first": "",
        "name": "新野医院",
        "postal_code": "779-0118",
        "revisit": "○",
        "tel": "088-672-0571",
        "url": ""
    },
    {
        "address": "徳島県板野郡北島町北村字壱町四反地６９－１",
        "cooperation": "",
        "department": "内科",
        "doctor": "有住　俊広",
        "first": "○",
        "name": "有住内科クリニック",
        "postal_code": "771-0201",
        "revisit": "○",
        "tel": "088-698-8655",
        "url": ""
    },
    {
        "address": "徳島県美馬市脇町字拝原１４９６－５",
        "cooperation": "",
        "department": "内科",
        "doctor": "岡　芳剛",
        "first": "○",
        "name": "岡内科病院",
        "postal_code": "779-3601",
        "revisit": "○",
        "tel": "0883-52-0988",
        "url": ""
    },
    {
        "address": "徳島県三好郡東みよし町昼間１４８",
        "cooperation": "",
        "department": "内科\n小児科",
        "doctor": "久原　孝",
        "first": "",
        "name": "くはらクリニック",
        "postal_code": "771-2501",
        "revisit": "○",
        "tel": "0883-76-5755",
        "url": ""
    },
    {
        "address": "徳島県三好市池田町マチ２４４３－１",
        "cooperation": "",
        "department": "内科\n外科\n整形外科",
        "doctor": "玉置　博",
        "first": "",
        "name": "浜クリニック",
        "postal_code": "778-0002",
        "revisit": "○",
        "tel": "0883-72-0667",
        "url": ""
    },
    {
        "address": "徳島県板野郡松茂町広島字南ノ川４９－１２",
        "cooperation": "",
        "department": "内科",
        "doctor": "井上　光郎",
        "first": "○",
        "name": "井上医院",
        "postal_code": "771-0220",
        "revisit": "○",
        "tel": "088-699-8070",
        "url": ""
    },
    {
        "address": "徳島県板野郡藍住町勝瑞字東勝地９５－２",
        "cooperation": "",
        "department": "整形外科",
        "doctor": "中川　偉文",
        "first": "",
        "name": "中川整形外科",
        "postal_code": "771-1273",
        "revisit": "○",
        "tel": "088-641-2288",
        "url": ""
    },
    {
        "address": "徳島県徳島市昭和町１丁目１６",
        "cooperation": "徳島県立中央病院（徳島市蔵本町）\n徳島市民病院（徳島市北常三島町）",
        "department": "内科",
        "doctor": "小濱　貴良\n小濱　美智\n原田　利枝",
        "first": "○",
        "name": "徳島クリニック",
        "postal_code": "770-0942",
        "revisit": "○",
        "tel": "088-653-6487",
        "url": "http://www.tokushimaclinic.or.jp/"
    },
    {
        "address": "徳島県徳島市北田宮２丁目７－７２",
        "cooperation": "",
        "department": "内科\n外科",
        "doctor": "豊﨑　纒\n豊﨑　光子",
        "first": "○",
        "name": "豊崎医院",
        "postal_code": "770-0003",
        "revisit": "○",
        "tel": "088-631-0500",
        "url": ""
    },
    {
        "address": "徳島県板野郡北島町江尻字松堂４５－１",
        "cooperation": "",
        "department": "内科\n小児科",
        "doctor": "田根　順次",
        "first": "○",
        "name": "田根内科胃腸科医院",
        "postal_code": "771-0205",
        "revisit": "○",
        "tel": "088-698-0123",
        "url": ""
    },
    {
        "address": "徳島県吉野川市鴨島町敷地１４－１",
        "cooperation": "",
        "department": "内科\n小児科",
        "doctor": "鈴木　直紀\n鈴木　率雄",
        "first": "",
        "name": "鈴木内科",
        "postal_code": "776-0031",
        "revisit": "○",
        "tel": "0883-24-5880",
        "url": ""
    },
    {
        "address": "徳島県徳島市八万町犬山２３２－１",
        "cooperation": "",
        "department": "内科",
        "doctor": "井本　佳孝",
        "first": "",
        "name": "いもと内科クリニック",
        "postal_code": "770-8070",
        "revisit": "○",
        "tel": "088-678-2338",
        "url": "imoto-clinic.jp/"
    },
    {
        "address": "徳島県板野郡北島町高房字八丁野西３６－１３",
        "cooperation": "",
        "department": "内科\n脳神経外科\n整形外科",
        "doctor": "中西　美和子\n永廣　信治\n渡辺　修身",
        "first": "○",
        "name": "吉野川病院",
        "postal_code": "771-0206",
        "revisit": "○",
        "tel": "088-698-6111",
        "url": ""
    },
    {
        "address": "徳島県徳島市佐古五番町１１－１７",
        "cooperation": "",
        "department": "内科",
        "doctor": "片岡　孝一\n片岡　伸一",
        "first": "",
        "name": "片岡内科消化器クリニック",
        "postal_code": "770-0025",
        "revisit": "○",
        "tel": "088-611-1251",
        "url": ""
    },
    {
        "address": "徳島県板野郡藍住町笠木字西野５０－１",
        "cooperation": "",
        "department": "内科",
        "doctor": "白石　達彦",
        "first": "",
        "name": "稲次病院",
        "postal_code": "771-1262",
        "revisit": "○",
        "tel": "088-692-5757",
        "url": "http://ryoun.com/"
    },
    {
        "address": "徳島県美馬市美馬町字宗重１１４－１",
        "cooperation": "",
        "department": "内科",
        "doctor": "佐藤　純端",
        "first": "",
        "name": "佐々木医院",
        "postal_code": "771-2104",
        "revisit": "○",
        "tel": "0883-63-2001",
        "url": ""
    },
    {
        "address": "徳島県徳島市中島田町４丁目７－７",
        "cooperation": "",
        "department": "乳腺科",
        "doctor": "笹　三徳\n高橋　雅子",
        "first": "",
        "name": "とくしまブレストケアクリニック",
        "postal_code": "770-0052",
        "revisit": "○",
        "tel": "088-633-8484",
        "url": ""
    },
    {
        "address": "徳島県徳島市大原町千代ヶ丸１２７－１",
        "cooperation": "徳島赤十字病院（小松島市）",
        "department": "内科\n消化器内科",
        "doctor": "美馬　伸章",
        "first": "",
        "name": "美馬内科クリニック",
        "postal_code": "770-8012",
        "revisit": "○",
        "tel": "088-677-5171",
        "url": ""
    },
    {
        "address": "徳島県美馬市脇町大字猪尻字東分２７－１",
        "cooperation": "",
        "department": "内科\n外科",
        "doctor": "成田　一之",
        "first": "",
        "name": "成田クリニック",
        "postal_code": "779-3602",
        "revisit": "○",
        "tel": "0883-55-0321",
        "url": ""
    },
    {
        "address": "徳島県徳島市住吉１丁目１０－１９",
        "cooperation": "",
        "department": "内科\n小児科",
        "doctor": "岡川　和人\n廣瀬　政雄\n安友　康二",
        "first": "○",
        "name": "おかがわ内科・小児科",
        "postal_code": "770-0861",
        "revisit": "○",
        "tel": "088-656-0022",
        "url": ""
    },
    {
        "address": "徳島県鳴門市撫養町南浜字東浜３０－１１",
        "cooperation": "徳島県立中央病院（徳島市蔵本町）\n徳島市民病院（徳島市北常三島町）",
        "department": "内科",
        "doctor": "岡田　宣三",
        "first": "○",
        "name": "岡田胃腸科内科",
        "postal_code": "772-0003",
        "revisit": "○",
        "tel": "088-685-7155",
        "url": ""
    },
    {
        "address": "徳島県板野郡藍住町矢上字北分９５",
        "cooperation": "",
        "department": "内科",
        "doctor": "浜　昭造\n浜　美紀",
        "first": "○",
        "name": "浜病院",
        "postal_code": "771-1252",
        "revisit": "○",
        "tel": "088-692-2317",
        "url": ""
    },
    {
        "address": "徳島県美馬市美馬町字宗重１１４－１",
        "cooperation": "",
        "department": "内科",
        "doctor": "佐藤　純端",
        "first": "",
        "name": "佐々木医院",
        "postal_code": "771-2104",
        "revisit": "○",
        "tel": "0883-63-2001",
        "url": ""
    },
    {
        "address": "徳島県板野郡北島町中村字東堤ノ内１９－１",
        "cooperation": "",
        "department": "小児科\n内科",
        "doctor": "富永ユリ\n藤岡　智仁\n山下和子\n伊藤　道徳",
        "first": "○",
        "name": "北島こどもクリニック",
        "postal_code": "771-0203",
        "revisit": "○",
        "tel": "088-697-2221",
        "url": "https://kodomo-clinic.net/kitajima/"
    },
    {
        "address": "徳島県徳島市勝占町惣田９",
        "cooperation": "徳島県立中央病院（徳島市蔵本町）\n徳島赤十字病院（小松島市）\n徳島市民病院（徳島市北常三島町）\n徳島大学病院（徳島市蔵本町）",
        "department": "内科\n消化器科\n呼吸器科\n循環器科\nリハビリ\n放射線科",
        "doctor": "大串文隆、元木由美、藤川\n和也、上間健造、伊井節\n子、藤本小百子、小野瀬由\n紀子、志村守彦、武田寛、\n香川耕造、土師恵子、米田\n造人、北山勇人、近石寛",
        "first": "○",
        "name": "博愛記念病院",
        "postal_code": "770-8023",
        "revisit": "○",
        "tel": "088-669-2166",
        "url": "https://hakuaihp.jp/"
    },
    {
        "address": "徳島県三好市池田町マチ２４４３－１",
        "cooperation": "徳島県立三好病院（三好市池田町）",
        "department": "内科\n外科\n整形",
        "doctor": "玉置　博",
        "first": "○",
        "name": "浜クリニック",
        "postal_code": "778-0002",
        "revisit": "○",
        "tel": "0883-72-0667",
        "url": ""
    },
    {
        "address": "徳島県名西郡石井町高川原字加茂野３１８－８",
        "cooperation": "",
        "department": "内科",
        "doctor": "尾崎　敏夫",
        "first": "○",
        "name": "尾崎医院",
        "postal_code": "779-3224",
        "revisit": "○",
        "tel": "088-674-8855",
        "url": ""
    },
    {
        "address": "徳島県海部郡海陽町四方原字広谷１６－１",
        "cooperation": "",
        "department": "内科\n整形外科",
        "doctor": "渡邊　美恵\n神澤　覧",
        "first": "",
        "name": "海陽町町国民健康保険海南病院",
        "postal_code": "775-0202",
        "revisit": "○",
        "tel": "0884-73-1355",
        "url": "https://www.kainan.jaaikosei.or.jp/"
    },
    {
        "address": "徳島県徳島市仲之町１丁目２７",
        "cooperation": "",
        "department": "耳鼻科",
        "doctor": "福本　次郎",
        "first": "○",
        "name": "福本耳鼻咽喉科",
        "postal_code": "770-0932",
        "revisit": "○",
        "tel": "088-623-6222",
        "url": "http://www.aroma-coco.net"
    },
    {
        "address": "徳島県徳島市下助任町３丁目１２－１",
        "cooperation": "中洲八木病院（徳島市）",
        "department": "内科",
        "doctor": "真鍋　辰哉",
        "first": "○",
        "name": "真鍋医院",
        "postal_code": "770-0805",
        "revisit": "○",
        "tel": "088-652-9686",
        "url": ""
    },
    {
        "address": "徳島県徳島市富田橋１丁目１１－２",
        "cooperation": "",
        "department": "内科\n小児科",
        "doctor": "中瀬　勝則",
        "first": "",
        "name": "中瀬医院",
        "postal_code": "770-0937",
        "revisit": "○",
        "tel": "088-623-3758",
        "url": "https://itp.ne.jp/info/366483555400000899/"
    },
    {
        "address": "徳島県美馬郡半田町字松生２９９－１",
        "cooperation": "町立半田病院（美馬郡つるぎ町）",
        "department": "外科\n整形\n胃腸\n肛門",
        "doctor": "武原　正夫",
        "first": "",
        "name": "武原外科整形外科医院",
        "postal_code": "779-4401",
        "revisit": "○",
        "tel": "0883-64-2111",
        "url": "http://masao-takehara@shirt.ocn.ne.jp"
    },
    {
        "address": "徳島県阿南市桑野町岡元５－１",
        "cooperation": "",
        "department": "内科",
        "doctor": "原田　浩臣",
        "first": "",
        "name": "原田医院",
        "postal_code": "779-1402",
        "revisit": "○",
        "tel": "0884-26-0101",
        "url": ""
    },
    {
        "address": "徳島県徳島市佐古六番町７－６",
        "cooperation": "",
        "department": "耳鼻科",
        "doctor": "今井　義禮",
        "first": "○",
        "name": "今井耳鼻咽喉科",
        "postal_code": "770-0026",
        "revisit": "○",
        "tel": "088-653-5808",
        "url": ""
    },
    {
        "address": "徳島県吉野川市鴨島町上下島４９７",
        "cooperation": "",
        "department": "内科\n整形外科\nリウマチ\n形成外科",
        "doctor": "",
        "first": "",
        "name": "美摩病院",
        "postal_code": "776-0013",
        "revisit": "○",
        "tel": "0883-24-2957",
        "url": ""
    },
    {
        "address": "徳島県徳島市南田宮１丁目３－５０",
        "cooperation": "徳島県立中央病院（徳島市蔵本町）\n徳島市民病院（徳島市北常三島町）",
        "department": "内科\n胃腸科\n消化器科\n小児科",
        "doctor": "冨田　作",
        "first": "",
        "name": "冨田内科胃腸科クリニック",
        "postal_code": "770-0004",
        "revisit": "○",
        "tel": "088-631-6711",
        "url": ""
    },
    {
        "address": "徳島県美馬郡つるぎ町半田字中藪２３４－１",
        "cooperation": "",
        "department": "内科\n産婦人科\n外科\n泌尿器科",
        "doctor": "各診療科\n常勤医師のみ\n対応可能",
        "first": "○",
        "name": "つるぎ町立半田病院",
        "postal_code": "779-4401",
        "revisit": "○",
        "tel": "0883-64-3145",
        "url": "http://www.handa-hospital.jp/"
    },
    {
        "address": "徳島県阿南市中大野町北傍示４８３－１",
        "cooperation": "阿南医療センター（阿南市宝田町）\n徳島赤十字病院（小松島市）",
        "department": "内科",
        "doctor": "松﨑　敏朗",
        "first": "",
        "name": "松﨑内科医院",
        "postal_code": "774-0048",
        "revisit": "○",
        "tel": "0884-23-5778",
        "url": ""
    },
    {
        "address": "徳島県小松島市坂野町字平田１８－４",
        "cooperation": "徳島赤十字病院（小松島市）",
        "department": "小児科\n内科\n神経内科",
        "doctor": "藤野　佳世",
        "first": "○",
        "name": "ふじの小児科クリニック",
        "postal_code": "773-0023",
        "revisit": "○",
        "tel": "0885-37-0250",
        "url": "http://fujino.ezdns.jp/"
    },
    {
        "address": "徳島県三好市池田町サラダ１７９５－１",
        "cooperation": "徳島県立三好病院（三好市池田町）",
        "department": "内科",
        "doctor": "村山　善紀",
        "first": "○",
        "name": "村山内科",
        "postal_code": "778-0003",
        "revisit": "○",
        "tel": "0883-72-2110",
        "url": ""
    },
    {
        "address": "徳島県阿南市富岡町東仲町３１３－２",
        "cooperation": "阿南医療センター（阿南市宝田町）",
        "department": "内科",
        "doctor": "三谷　裕昭",
        "first": "○",
        "name": "三谷内科",
        "postal_code": "774-0030",
        "revisit": "○",
        "tel": "0884-23-0222",
        "url": ""
    },
    {
        "address": "徳島県美馬市美馬町字南荒川７１",
        "cooperation": "",
        "department": "内科",
        "doctor": "新野　和人\n新野　悦子",
        "first": "○",
        "name": "サンクリニック",
        "postal_code": "771-2106",
        "revisit": "○",
        "tel": "0883-63-2277",
        "url": ""
    },
    {
        "address": "徳島県徳島市川内町鶴島１６２",
        "cooperation": "徳島県立中央病院（徳島市蔵本町）\n徳島市民病院（徳島市北常三島町）",
        "department": "整形外科\n内科",
        "doctor": "新居　大\n堀江　貴浩\n堀江　千晶",
        "first": "",
        "name": "松村病院",
        "postal_code": "771-0117",
        "revisit": "○",
        "tel": "088-665-3233",
        "url": "http://www.wakakusakai.com/"
    },
    {
        "address": "徳島県板野郡藍住町矢上字原１７４－１",
        "cooperation": "",
        "department": "",
        "doctor": "",
        "first": "",
        "name": "増田クリニック",
        "postal_code": "771-1251",
        "revisit": "○",
        "tel": "088-693-3020",
        "url": "http://www.itanomed.jp/a-masuda.htm"
    },
    {
        "address": "徳島県阿波市土成町吉田字原田市の四３１",
        "cooperation": "",
        "department": "内科",
        "doctor": "加藤　修司",
        "first": "○",
        "name": "御所診療所",
        "postal_code": "771-1507",
        "revisit": "○",
        "tel": "088-637-8033",
        "url": ""
    },
    {
        "address": "徳島県吉野川市山川町湯立２７７－１",
        "cooperation": "さくら診療所（吉野川市山川町）",
        "department": "内科",
        "doctor": "渡部　豪",
        "first": "",
        "name": "よしのがわ往診診療所",
        "postal_code": "779-3404",
        "revisit": "○",
        "tel": "0883-36-1850",
        "url": "https://jcb02167.wixsite.com/yoshinogawaclinic"
    },
    {
        "address": "徳島県三好郡東みよし町中庄７２８－１",
        "cooperation": "",
        "department": "精神科",
        "doctor": "",
        "first": "",
        "name": "ゆうあいホスピタル",
        "postal_code": "779-4703",
        "revisit": "",
        "tel": "0883-82-1100",
        "url": "http://yuai-hp.com/"
    },
    {
        "address": "徳島県徳島市寺島本町西１丁目１５",
        "cooperation": "徳島県立中央病院（徳島市蔵本町）\n徳島大学病院（徳島市蔵本町）",
        "department": "内科\n小児科",
        "doctor": "古川　浩\n中川　礼子",
        "first": "",
        "name": "こかわ医院",
        "postal_code": "770-0831",
        "revisit": "○",
        "tel": "088-622-2125",
        "url": ""
    },
    {
        "address": "徳島県徳島市安宅２丁目７－３８",
        "cooperation": "徳島市民病院（徳島市）\n徳島赤十字病院（小松島市）",
        "department": "内科\n小児科",
        "doctor": "若槻　真吾\n若槻　真紀",
        "first": "",
        "name": "若槻クリニック",
        "postal_code": "770-0863",
        "revisit": "○",
        "tel": "088-652-0437",
        "url": ""
    },
    {
        "address": "徳島県板野郡北島町中村字東開１４－１",
        "cooperation": "",
        "department": "小児科",
        "doctor": "岡島　文男\n田中　宏美\n林　真美子\n山崎　環",
        "first": "",
        "name": "健生きたじまクリニック",
        "postal_code": "771-0203",
        "revisit": "○",
        "tel": "088-698-9629",
        "url": "sukusuku.betoku.jp/"
    },
    {
        "address": "徳島県徳島市津田西町１丁目２－３０",
        "cooperation": "徳島県立中央病院（徳島市蔵本町）\n徳島市民病院（徳島市北常三島町）",
        "department": "内科\n消化器内科\n循環器内科",
        "doctor": "寺澤　敏秀\n鶴尾　美穂",
        "first": "○",
        "name": "寺沢病院",
        "postal_code": "770-8004",
        "revisit": "○",
        "tel": "088-662-5311",
        "url": "http://www.terasawa.or.jp/"
    },
    {
        "address": "徳島県徳島市昭和町２丁目７１",
        "cooperation": "徳島県立中央病院（徳島市蔵本町）",
        "department": "漢方内科\n消化器内科\n老年神経内科\nリハビリ",
        "doctor": "東　照代",
        "first": "○",
        "name": "もりの医院",
        "postal_code": "770-0942",
        "revisit": "○",
        "tel": "088-625-1488",
        "url": ""
    },
    {
        "address": "徳島県板野郡藍住町奥野字和田７１－１３",
        "cooperation": "",
        "department": "内科",
        "doctor": "清水　正樹\n清水大樹",
        "first": "",
        "name": "清水内科",
        "postal_code": "771-1202",
        "revisit": "○",
        "tel": "088-692-8900",
        "url": "https://www.seijyukai-med.jp/shimizuim/"
    },
    {
        "address": "徳島県鳴門市大麻町牛屋島字大浜５４",
        "cooperation": "徳島県鳴門病院（鳴門市）",
        "department": "内科",
        "doctor": "齋藤　勤",
        "first": "○",
        "name": "斎藤医院",
        "postal_code": "779-0311",
        "revisit": "○",
        "tel": "088-689-0151",
        "url": ""
    },
    {
        "address": "徳島県徳島市富田橋１丁目３０",
        "cooperation": "博愛記念病院（徳島市勝占町）\n徳島平成病院（徳島市伊賀町）",
        "department": "内科",
        "doctor": "橋口　淑夫",
        "first": "○",
        "name": "橋口内科クリニック",
        "postal_code": "770-0937",
        "revisit": "○",
        "tel": "088-624-1001",
        "url": "https://www.hashiguchi-clinic.or.jp/"
    },
    {
        "address": "徳島県海部郡海陽町宍喰浦字松原５８－５",
        "cooperation": "徳島県立海部病院（海部郡）",
        "department": "内科\n胃腸科",
        "doctor": "折野　眞哉\n折野　俊介",
        "first": "○",
        "name": "折野胃腸科内科",
        "postal_code": "775-0501",
        "revisit": "○",
        "tel": "0884-76-2249",
        "url": ""
    },
    {
        "address": "徳島県板野郡板野町吹田字町南２７－２",
        "cooperation": "東徳島医療センター（板野郡板野町）",
        "department": "内科",
        "doctor": "柴田　明徳",
        "first": "○",
        "name": "三愛内科",
        "postal_code": "779-0104",
        "revisit": "○",
        "tel": "088-672-0176",
        "url": ""
    },
    {
        "address": "徳島県徳島市中昭和町２丁目６",
        "cooperation": "徳島県立中央病院（徳島市蔵本町）\n徳島市民病院（徳島市北常三島町）",
        "department": "内科",
        "doctor": "上村　るみ子",
        "first": "○",
        "name": "協栄内科",
        "postal_code": "770-0943",
        "revisit": "○",
        "tel": "088-652-2211",
        "url": ""
    },
    {
        "address": "徳島県鳴門市撫養町斎田字大堤５４",
        "cooperation": "",
        "department": "内科\n外科",
        "doctor": "当日診療担当医",
        "first": "",
        "name": "兼松病院",
        "postal_code": "772-0002",
        "revisit": "○",
        "tel": "088-685-4537",
        "url": ""
    },
    {
        "address": "徳島県徳島市八万町橋本９２－１",
        "cooperation": "",
        "department": "脳神経外科",
        "doctor": "吉嶋　淳生\n戎谷　大蔵\n兼松　康久\n島田　健司",
        "first": "○",
        "name": "協立病院",
        "postal_code": "770-8078",
        "revisit": "○",
        "tel": "088-668-1070",
        "url": "http://www.kyoritsuhp.or.jp/"
    },
    {
        "address": "徳島県徳島市八万町橋本９２－１",
        "cooperation": "",
        "department": "内科",
        "doctor": "堀内　雅文\n答島　恵実子\n山川　泰弘\n高森　雅子\n瀧倉　輝実\n森田　雄介\n仁木　敏晴",
        "first": "○",
        "name": "協立病院",
        "postal_code": "770-8078",
        "revisit": "○",
        "tel": "088-668-1070",
        "url": "http://www.kyoritsuhp.or.jp/"
    },
    {
        "address": "徳島県徳島市八万町橋本９２－１",
        "cooperation": "",
        "department": "整形外科",
        "doctor": "飯山　愛彦\n福島　慎也\n八木　清\n木島　和也",
        "first": "○",
        "name": "協立病院",
        "postal_code": "770-8078",
        "revisit": "○",
        "tel": "088-668-1070",
        "url": "http://www.kyoritsuhp.or.jp/"
    },
    {
        "address": "徳島県徳島市八万町橋本９２－１",
        "cooperation": "",
        "department": "泌尿器科",
        "doctor": "小川　功\n山本　恭代\n楠原　義人",
        "first": "○",
        "name": "協立病院",
        "postal_code": "770-8078",
        "revisit": "○",
        "tel": "088-668-1070",
        "url": "http://www.kyoritsuhp.or.jp/"
    },
    {
        "address": "徳島県徳島市八万町橋本９２－１",
        "cooperation": "",
        "department": "皮膚科",
        "doctor": "菊池　誠",
        "first": "○",
        "name": "協立病院",
        "postal_code": "770-8078",
        "revisit": "○",
        "tel": "088-668-1070",
        "url": "http://www.kyoritsuhp.or.jp/"
    },
    {
        "address": "徳島県徳島市八万町橋本９２－１",
        "cooperation": "",
        "department": "循環器科",
        "doctor": "仁木　敏晴\n武市　脩",
        "first": "○",
        "name": "協立病院",
        "postal_code": "770-8078",
        "revisit": "○",
        "tel": "088-668-1070",
        "url": "http://www.kyoritsuhp.or.jp/"
    },
    {
        "address": "徳島県徳島市八万町橋本９２－１",
        "cooperation": "",
        "department": "外科",
        "doctor": "福島　慎也",
        "first": "○",
        "name": "協立病院",
        "postal_code": "770-8078",
        "revisit": "○",
        "tel": "088-668-1070",
        "url": "http://www.kyoritsuhp.or.jp/"
    },
    {
        "address": "徳島県徳島市国府町芝原字天満２５－１",
        "cooperation": "徳島県立中央病院（徳島市蔵本町）",
        "department": "内科",
        "doctor": "高杉　緑",
        "first": "○",
        "name": "高杉内科外科小児科脳外科",
        "postal_code": "779-3112",
        "revisit": "○",
        "tel": "088-642-7474",
        "url": "http://www.takasugihosp.org/"
    },
    {
        "address": "徳島県小松島市坂野町字平田１８－２",
        "cooperation": "",
        "department": "内科",
        "doctor": "藤野　和也",
        "first": "",
        "name": "藤野医院",
        "postal_code": "773-0023",
        "revisit": "○",
        "tel": "0885-38-1636",
        "url": ""
    },
    {
        "address": "徳島県徳島市北矢三町３丁目３－４１",
        "cooperation": "",
        "department": "小児科",
        "doctor": "田山　正伸",
        "first": "○",
        "name": "田山チャイルドクリニック",
        "postal_code": "770-0006",
        "revisit": "○",
        "tel": "088-633-2055",
        "url": "http://tayama-child-clinic.jp/"
    },
    {
        "address": "徳島県徳島市山城町西浜傍示１６２－１",
        "cooperation": "",
        "department": "泌尿器\n耳鼻科",
        "doctor": "髙橋　久弥\n髙橋　美香",
        "first": "",
        "name": "髙橋クリニック　泌尿器科・耳鼻咽喉科",
        "postal_code": "770-8055",
        "revisit": "○",
        "tel": "088-602-7722",
        "url": "https://takahashiclinic7722.com/"
    },
    {
        "address": "徳島県海部郡牟岐町大字中村字本村９５－１",
        "cooperation": "徳島県立海部病院（海部郡）",
        "department": "内科",
        "doctor": "小柴　邦彦",
        "first": "",
        "name": "牟岐駅前クリニック",
        "postal_code": "775-0006",
        "revisit": "○",
        "tel": "0884-72-3311",
        "url": "https://www.koshibaclinic.com/"
    },
    {
        "address": "徳島県那賀郡那賀町和食郷字南川８７－１",
        "cooperation": "",
        "department": "内科",
        "doctor": "和田　達也",
        "first": "",
        "name": "わだ内科",
        "postal_code": "771-5203",
        "revisit": "○",
        "tel": "0884-62-3311",
        "url": ""
    },
    {
        "address": "徳島県海部郡日和佐町奥河内字本村９－１",
        "cooperation": "",
        "department": "内科",
        "doctor": "川井　尚臣",
        "first": "",
        "name": "日和佐診療所",
        "postal_code": "779-2305",
        "revisit": "○",
        "tel": "0884-77-0125",
        "url": ""
    },
    {
        "address": "徳島県徳島市大道２丁目３０",
        "cooperation": "",
        "department": "内科\n腎臓内科",
        "doctor": "大久保明彦\n玉木克佳",
        "first": "",
        "name": "大久保病院",
        "postal_code": "770-0923",
        "revisit": "○",
        "tel": "088-622-9156",
        "url": "ohkubo-hospital.com/"
    },
    {
        "address": "徳島県美馬市脇町大字脇町３１６－２",
        "cooperation": "吉野川医療センター（吉野川市鴨島町）\nつるぎ町立半田病院（美馬郡つるぎ町）",
        "department": "内科",
        "doctor": "井上",
        "first": "○",
        "name": "脇町中央医院",
        "postal_code": "779-3610",
        "revisit": "○",
        "tel": "0883-52-1529",
        "url": "https://byoinnavi.jp/clinic/"
    },
    {
        "address": "徳島県鳴門市撫養町南浜字東浜５９２",
        "cooperation": "",
        "department": "内科\n小児科",
        "doctor": "元木　康文",
        "first": "",
        "name": "元木医院",
        "postal_code": "772-0003",
        "revisit": "○",
        "tel": "088-685-8282",
        "url": ""
    },
    {
        "address": "徳島県徳島市川内町平石住吉３１７－４",
        "cooperation": "",
        "department": "肛門科\n胃腸科\n内科\n外科\n整形外科\nリハビリ",
        "doctor": "大塚　雅文\n大塚　美恵",
        "first": "",
        "name": "大塚外科内科",
        "postal_code": "771-0134",
        "revisit": "○",
        "tel": "088-665-7722",
        "url": "http://www.otuka-cl.com/"
    },
    {
        "address": "徳島県鳴門市撫養町斎田字北浜９９",
        "cooperation": "",
        "department": "内科",
        "doctor": "小川　哲也\n小川　裕子\n足立　克仁\n上田　圭介",
        "first": "○",
        "name": "小川病院",
        "postal_code": "772-0002",
        "revisit": "○",
        "tel": "088-686-2322",
        "url": "http://www.ogawa-hp.jp/"
    },
    {
        "address": "徳島県徳島市佐古五番町４－３",
        "cooperation": "",
        "department": "内科",
        "doctor": "久保　貴之",
        "first": "○",
        "name": "愛日病院",
        "postal_code": "770-0025",
        "revisit": "○",
        "tel": "088-623-2622",
        "url": "https://youaijitsu.com/"
    },
    {
        "address": "徳島県海部郡海陽町大里字松原３４－４７",
        "cooperation": "",
        "department": "内科\n小児科\n耳鼻咽喉科\n皮膚科",
        "doctor": "松田　啓次\n木下　章子",
        "first": "○",
        "name": "大里医院",
        "postal_code": "775-0203",
        "revisit": "○",
        "tel": "0884-73-3102",
        "url": "http://www.oozato-clinic.com/"
    },
    {
        "address": "徳島県徳島市鮎喰町２丁目９５－１",
        "cooperation": "",
        "department": "内科",
        "doctor": "川内　千徳\n曽我部　公子\n倉橋　清樹",
        "first": "○",
        "name": "川内内科",
        "postal_code": "770-0046",
        "revisit": "○",
        "tel": "088-632-1505",
        "url": "https://kawauchi-clinic.jp/"
    },
    {
        "address": "徳島県美馬市脇町大字猪尻字八幡神社下南130-3",
        "cooperation": "",
        "department": "各診療科にて\n要相談",
        "doctor": "各診療科\n担当医師",
        "first": "",
        "name": "ホウエツ病院",
        "postal_code": "779-3602",
        "revisit": "○",
        "tel": "0883-52-1095",
        "url": "https://www.houetsu.com/"
    },
    {
        "address": "徳島県徳島市佐古四番町６－１１",
        "cooperation": "",
        "department": "呼吸器科\n内科\n外科\n皮膚科",
        "doctor": "團　博文",
        "first": "○",
        "name": "佐古あいじつクリニック",
        "postal_code": "770-0024",
        "revisit": "○",
        "tel": "088-624-9935",
        "url": ""
    },
    {
        "address": "徳島県徳島市中島田町３丁目６０－１",
        "cooperation": "石井虹の橋クリニック（名西郡石井町）",
        "department": "内科",
        "doctor": "竹内\n高川",
        "first": "○",
        "name": "虹の橋病院",
        "postal_code": "770-052",
        "revisit": "○",
        "tel": "088-633-0800",
        "url": "https://www.nijinohashi.net/"
    },
    {
        "address": "徳島県徳島市中徳島町２丁目９７－１",
        "cooperation": "",
        "department": "内科",
        "doctor": "佐々木　雄毅",
        "first": "○",
        "name": "リバーサイドのぞみ病院",
        "postal_code": "770-0853",
        "revisit": "○",
        "tel": "088-611-1701",
        "url": "http://www.nozomihp.com/"
    },
    {
        "address": "徳島県三好市西祖谷山村一宇368番地9",
        "cooperation": "徳島県立三好病院（徳島県三好市池田町シマ815-2）",
        "department": "内科\n外科\n整形外科",
        "doctor": "森本潤・木下大・原田貴\n文・山本博貴・川島周・斉\n藤雅彦・宮恵子・西村明\n儒・杉本友則・大塚明廣・\n西内健・野間喜彦・本藤秀\n樹・林郁郎・東博之・鶴尾\n吉宏・主田英之・藤本浩\n史・小松まち子・曽根佳世\n子",
        "first": "○",
        "name": "三好市国民健康保険西祖谷診療所",
        "postal_code": "778-0101",
        "revisit": "○",
        "tel": "0883-87-2360",
        "url": ""
    },
    {
        "address": "徳島県三好市山城町上名1584番地3-3",
        "cooperation": "徳島県立三好病院（徳島県三好市池田町シマ815-2）",
        "department": "内科\n外科\n整形外科",
        "doctor": "木下　大\n森本　潤\n岩永　将輝\n内藤　仁美",
        "first": "○",
        "name": "三好市国民健康保険大歩危診療所",
        "postal_code": "779-5452",
        "revisit": "○",
        "tel": "0883-84-1021",
        "url": ""
    },
    {
        "address": "徳島県三好市東祖谷京上14-3",
        "cooperation": "徳島県立三好病院（徳島県三好市池田町シマ815-2）",
        "department": "内科",
        "doctor": "森本　潤（毎週金曜日）\n木下　大（毎週水曜日）\n三宅孝典（隔週火曜日）\n高丸利加子（隔週火曜日）",
        "first": "○",
        "name": "三好市国民健康保険東祖谷診療所",
        "postal_code": "778-0204",
        "revisit": "○",
        "tel": "0883-88-2300",
        "url": ""
    },
    {
        "address": "徳島県名西郡石井町高川原字桜間２１５",
        "cooperation": "",
        "department": "整形外科",
        "doctor": "石岡　博文\n森本　訓明",
        "first": "○",
        "name": "石岡整形外科",
        "postal_code": "779-3225",
        "revisit": "○",
        "tel": "088-674-8800",
        "url": "http://ishioka-seikei-ishii.or.jp/"
    },
    {
        "address": "徳島県徳島市中吉野町４丁目５０－２",
        "cooperation": "徳島県立中央病院（徳島市蔵本町）\n徳島市民病院（徳島市北常三島町）",
        "department": "内科",
        "doctor": "中村　浩子",
        "first": "",
        "name": "中村外科内科",
        "postal_code": "770-0804",
        "revisit": "○",
        "tel": "088-631-8555",
        "url": ""
    },
    {
        "address": "徳島県美馬郡脇町大字猪尻字西分１４８",
        "cooperation": "成田診療所",
        "department": "内科\n整形外科\n外科\n呼吸器科\n呼吸器内科\n皮膚科\n小児科\n放射線科\nリハビリ",
        "doctor": "藤野　晴彦",
        "first": "",
        "name": "成田病院",
        "postal_code": "779-3602",
        "revisit": "○",
        "tel": "0883-52-1258",
        "url": ""
    },
    {
        "address": "徳島県徳島市南庄町４丁目６３－１",
        "cooperation": "",
        "department": "内科\n整形外科",
        "doctor": "玉木　康民\n松永　厚美",
        "first": "",
        "name": "松永病院",
        "postal_code": "770-0045",
        "revisit": "",
        "tel": "088-632-3328",
        "url": "https://www.matsunaga-hp.jp/"
    },
    {
        "address": "徳島県徳島市万代町１丁目１",
        "cooperation": "",
        "department": "内科",
        "doctor": "真鍋　和代",
        "first": "",
        "name": "地方職員共済組合徳島県支部直営診療所",
        "postal_code": "770-8570",
        "revisit": "○",
        "tel": "088-621-3202",
        "url": "https://www.pref.tokushima.lg.jp/kenseijoho/kenchoshanojoho/choshanaishisetsu/5003827"
    },
    {
        "address": "徳島県阿波市市場町大野島字野神８８－３",
        "cooperation": "",
        "department": "内科\n外科",
        "doctor": "大久保　卓",
        "first": "○",
        "name": "大久保内科",
        "postal_code": "771-1627",
        "revisit": "○",
        "tel": "0883-36-3020",
        "url": ""
    },
    {
        "address": "徳島県板野郡板野町大寺字大向北１－１",
        "cooperation": "",
        "department": "内科\n外科\n小児科\n整形外科\n放射線科\n泌尿器科",
        "doctor": "外来診療医師",
        "first": "",
        "name": "独立行政法人国立病院機構東徳島医療ｾﾝﾀｰ",
        "postal_code": "779-0193",
        "revisit": "○",
        "tel": "088-672-1171",
        "url": "https://higashitokushima.hosp.go.jp/"
    },
    {
        "address": "徳島県阿波市市場町上喜来字二俣前３８１－１",
        "cooperation": "吉野川医療センター（吉野川市鴨島町）",
        "department": "内科",
        "doctor": "太田　晃",
        "first": "○",
        "name": "太田診療所",
        "postal_code": "771-1612",
        "revisit": "",
        "tel": "0883-36-2076",
        "url": ""
    },
    {
        "address": "徳島県三好郡東みよし町加茂２５４６－４",
        "cooperation": "徳島県立三好病院（三好市池田町）",
        "department": "内科\n小児科",
        "doctor": "川原　久須二",
        "first": "○",
        "name": "さんさん医院",
        "postal_code": "779-4701",
        "revisit": "○",
        "tel": "0883-82-5410",
        "url": ""
    },
    {
        "address": "徳島県小松島市小松島町字井利ノ口１０３",
        "cooperation": "",
        "department": "全診療科",
        "doctor": "各担当医",
        "first": "",
        "name": "徳島赤十字病院",
        "postal_code": "773-8502",
        "revisit": "○",
        "tel": "0885-32-2555",
        "url": "http://www.tokushima-med.jrc.or.jp/"
    },
    {
        "address": "徳島県徳島市西新浜町１丁目６－２５",
        "cooperation": "",
        "department": "総合内科\n緩和ケア\n胃腸科\n内分泌糖尿病外\n来\n代謝内分泌\n呼吸器科\n血液総合内科\n消化器科\n呼吸器科\n循環器科\n代謝内分泌",
        "doctor": "近藤彰、田村克也、荒瀬友\n子、齋藤圭治、吉本勝彦、\n粟飯原賢一、軒原浩、大浦\n雅博、田中宏典、福家麻\n美、岸宏一、原倫世、宇髙\n憲吾",
        "first": "",
        "name": "近藤内科病院",
        "postal_code": "770-8008",
        "revisit": "○",
        "tel": "088-663-0020",
        "url": ""
    },
    {
        "address": "徳島県小松島市中田町字新開４－１",
        "cooperation": "",
        "department": "小児科\n神経小児科\n整形外科\n精神科",
        "doctor": "中津忠則、里村茂子、小谷\n浩子、内藤悦雄、津田芳\n見、島川清司、洲﨑一郎、\n椎野滋、橋本俊顕",
        "first": "",
        "name": "徳島赤十字ひのみね総合療育センター",
        "postal_code": "773-0015",
        "revisit": "○",
        "tel": "0885-32-0903",
        "url": ""
    },
    {
        "address": "徳島県阿南市新野町信里６－１",
        "cooperation": "",
        "department": "内科",
        "doctor": "馬原　文彦\n橋爪　史子",
        "first": "○",
        "name": "馬原医院",
        "postal_code": "779-1510",
        "revisit": "○",
        "tel": "0884-36-3339",
        "url": "http://maharahospital.jp/"
    },
    {
        "address": "徳島県徳島市住吉２丁目２－３５",
        "cooperation": "徳島市民病院（徳島市）",
        "department": "内科",
        "doctor": "豊田　健二",
        "first": "○",
        "name": "豊田内科",
        "postal_code": "770-0861",
        "revisit": "○",
        "tel": "088-654-5217",
        "url": ""
    },
    {
        "address": "徳島県徳島市蔵本町３丁目１８－１５",
        "cooperation": "",
        "department": "精神神経科",
        "doctor": "大田　将史",
        "first": "",
        "name": "徳島大学病院",
        "postal_code": "770-0042",
        "revisit": "○",
        "tel": "088-631-3111",
        "url": "https://www.tokushima-hosp.jp/"
    },
    {
        "address": "徳島県美馬市脇町大字猪尻字西ノ久保３７－２",
        "cooperation": "",
        "department": "内科",
        "doctor": "藤野　正晴",
        "first": "",
        "name": "成田診療所",
        "postal_code": "779-3602",
        "revisit": "○",
        "tel": "0883-55-0770",
        "url": ""
    },
    {
        "address": "徳島県板野郡松茂町中喜来字群恵２７８－８",
        "cooperation": "橋本医院（鳴門市）",
        "department": "外科\n内科",
        "doctor": "芳川　博哉\n芳川　靖弘\n芳川　敬政",
        "first": "",
        "name": "芳川病院",
        "postal_code": "771-0212",
        "revisit": "○",
        "tel": "088-699-5355",
        "url": "http://www.yujoukai.jp/"
    },
    {
        "address": "徳島県徳島市佐古三番町７－３",
        "cooperation": "徳島県立中央病院（徳島市蔵本町）",
        "department": "胃腸科\n外科\n内科\nリハビリ",
        "doctor": "善成　務\n善成　雅彦",
        "first": "○",
        "name": "善成病院",
        "postal_code": "770-0023",
        "revisit": "○",
        "tel": "088-622-1212",
        "url": ""
    },
    {
        "address": "徳島県阿南市羽ノ浦町中庄市４９－３",
        "cooperation": "",
        "department": "内科",
        "doctor": "富永　俊彦",
        "first": "",
        "name": "富永医院",
        "postal_code": "779-1101",
        "revisit": "○",
        "tel": "0884-44-2123",
        "url": ""
    },
    {
        "address": "徳島県阿南市上中町岡３５７－１",
        "cooperation": "徳島赤十字病院（小松島市）",
        "department": "皮膚科\n形成外科",
        "doctor": "戸田　則之\n神野　義行\n森本　篤志",
        "first": "○",
        "name": "あなん戸田皮膚科医院",
        "postal_code": "774-0044",
        "revisit": "○",
        "tel": "0884-22-6556",
        "url": ""
    },
    {
        "address": "徳島県徳島市大和町１丁目６－３２",
        "cooperation": "徳島大学病院（徳島市蔵本町）\n徳島県立中央病院（徳島市蔵本町）\n徳島市民病院（徳島市北常三島町）",
        "department": "皮膚科\n形成外科",
        "doctor": "森本　篤志\n若嶋　千恵\n戸田　則之\n神野　義行",
        "first": "○",
        "name": "戸田皮膚科医院",
        "postal_code": "770-0864",
        "revisit": "○",
        "tel": "088-657-6111",
        "url": ""
    },
    {
        "address": "徳島県徳島市仲之町４丁目５",
        "cooperation": "徳島県立中央病院（徳島市蔵本町）\n徳島市民病院（徳島市北常三島町）",
        "department": "内科\n消化器科",
        "doctor": "関　啓",
        "first": "○",
        "name": "関内科消化器科",
        "postal_code": "770-0932",
        "revisit": "○",
        "tel": "088-652-8739",
        "url": ""
    },
    {
        "address": "徳島県徳島市勝占町下河原３２－１",
        "cooperation": "",
        "department": "内科\n小児科\n泌尿器科",
        "doctor": "桜井　えつ\n桜井　紀嗣",
        "first": "○",
        "name": "住友医院",
        "postal_code": "770-8023",
        "revisit": "○",
        "tel": "088-669-0357",
        "url": ""
    },
    {
        "address": "徳島県徳島市伊賀町３丁目１９－２",
        "cooperation": "",
        "department": "内科",
        "doctor": "清水　英治",
        "first": "○",
        "name": "徳島平成病院",
        "postal_code": "770-0926",
        "revisit": "○",
        "tel": "088-623-8611",
        "url": "https://tokushimahp.jp/"
    },
    {
        "address": "徳島県徳島市徳島町２丁目５４",
        "cooperation": "徳島県立中央病院（徳島市蔵本町）",
        "department": "内科\n神経内科",
        "doctor": "主治医",
        "first": "",
        "name": "伊月病院",
        "postal_code": "770-0852",
        "revisit": "○",
        "tel": "088-622-1117",
        "url": ""
    },
    {
        "address": "徳島県美馬市脇町木ノ内３７６３",
        "cooperation": "",
        "department": "精神科\n心療内科\n内科",
        "doctor": "櫻木　章司\n小林　良二\n赤川　雅弘\n木原　章一",
        "first": "○",
        "name": "桜木病院",
        "postal_code": "779-3620",
        "revisit": "○",
        "tel": "0883-52-2583",
        "url": ""
    },
    {
        "address": "徳島県徳島市中洲町１丁目６４－２",
        "cooperation": "徳島県立中央病院（徳島市蔵本町）",
        "department": "内科",
        "doctor": "仁木　博文",
        "first": "○",
        "name": "仁木訪問診療クリニック",
        "postal_code": "770-0856",
        "revisit": "○",
        "tel": "088-611-2128",
        "url": ""
    },
    {
        "address": "徳島県名西郡神山町神領字西野間２３－１",
        "cooperation": "",
        "department": "内科\n整形外科",
        "doctor": "中谷　哲也",
        "first": "",
        "name": "中谷医院",
        "postal_code": "771-3311",
        "revisit": "○",
        "tel": "088-676-0013",
        "url": ""
    },
    {
        "address": "徳島県美馬市木屋平字川井２２４",
        "cooperation": "",
        "department": "内科",
        "doctor": "藤原　真治",
        "first": "",
        "name": "美馬市国民健康保険木屋平診療所",
        "postal_code": "777-0302",
        "revisit": "○",
        "tel": "0883-68-2541",
        "url": ""
    },
    {
        "address": "徳島県小松島市赤石町１４－２７",
        "cooperation": "",
        "department": "内科",
        "doctor": "岩浅　祐二郞",
        "first": "○",
        "name": "ライフクリニック",
        "postal_code": "773-0021",
        "revisit": "○",
        "tel": "0885-37-1811",
        "url": ""
    },
    {
        "address": "徳島県小松島市大林北浦21番地1",
        "cooperation": "",
        "department": "内科",
        "doctor": "由宇　教浩\n日下　至弘\n田中　幸子\n野田　佳子",
        "first": "",
        "name": "江籐病院",
        "postal_code": "773-0022",
        "revisit": "○",
        "tel": "0885-37-1559",
        "url": "etouhp.com/"
    },
    {
        "address": "徳島県徳島市南島田町４丁目５４－１",
        "cooperation": "",
        "department": "小児科",
        "doctor": "山田",
        "first": "○",
        "name": "山田こどもクリニック",
        "postal_code": "770-0053",
        "revisit": "○",
        "tel": "088-634-0013",
        "url": "yamadakodomo.com/"
    },
    {
        "address": "徳島県徳島市南前川町４丁目４８",
        "cooperation": "徳島県立中央病院（徳島市蔵本町）\n徳島市民病院（徳島市北常三島町）\n健生病院（徳島市）",
        "department": "内科\n小児科",
        "doctor": "原田　和代",
        "first": "",
        "name": "原田医院",
        "postal_code": "770-0808",
        "revisit": "○",
        "tel": "088-652-3366",
        "url": ""
    },
    {
        "address": "徳島県小松島市大林町高橋５５",
        "cooperation": "",
        "department": "耳鼻咽喉科",
        "doctor": "庄野　勉",
        "first": "○",
        "name": "庄野耳鼻咽喉科医院",
        "postal_code": "773-0022",
        "revisit": "○",
        "tel": "0885-37-3341",
        "url": "http://www7b.biglobe.ne.jp/~syonoent/"
    },
    {
        "address": "徳島県名西郡石井町石井字石井２３１－１",
        "cooperation": "虹の橋病院（徳島市）",
        "department": "内科",
        "doctor": "竹内\n冨田",
        "first": "○",
        "name": "石井虹の橋クリニック",
        "postal_code": "779-3233",
        "revisit": "○",
        "tel": "088-674-2311",
        "url": "https://ishii-nijinohashi.net/"
    },
    {
        "address": "徳島県徳島市国府町観音寺２２７－１",
        "cooperation": "たまき青空病院（徳島市国府町）\n徳島県立中央病院（徳島市蔵本町）",
        "department": "内科\n小児科",
        "doctor": "高橋　安毅",
        "first": "",
        "name": "たかはし内科",
        "postal_code": "779-3123",
        "revisit": "○",
        "tel": "088-643-0122",
        "url": "http://takahashi-naika.jp/"
    },
    {
        "address": "徳島県徳島市寺島本町２丁目１９",
        "cooperation": "徳島県立中央病院（徳島市蔵本町）\n徳島市民病院（徳島市北常三島町）",
        "department": "耳鼻咽喉科",
        "doctor": "大櫛　弘篤\n大櫛　哲史",
        "first": "",
        "name": "大櫛耳鼻咽喉科はな・みみｻｰｼﾞｸﾘﾆｯｸ",
        "postal_code": "770-0832",
        "revisit": "○",
        "tel": "088-622-8787",
        "url": "http://ogushi-jibika.com/"
    },
    {
        "address": "徳島県板野郡藍住町東中富字東傍示１－３",
        "cooperation": "",
        "department": "小児科\n内科",
        "doctor": "富本　尚子",
        "first": "○",
        "name": "富本小児科内科",
        "postal_code": "771-1220",
        "revisit": "○",
        "tel": "088-692-7228",
        "url": ""
    },
    {
        "address": "徳島県阿南市富岡町トノ町５４－１",
        "cooperation": "阿南医療センター（阿南市宝田町）",
        "department": "内科\n小児科",
        "doctor": "岸　彰\n岸　潤",
        "first": "○",
        "name": "岸医院",
        "postal_code": "774-0030",
        "revisit": "○",
        "tel": "0884-23-0272",
        "url": ""
    },
    {
        "address": "徳島県小松島市江田町字大江田４４－１",
        "cooperation": "",
        "department": "循環器内科\n内科\n感染症科",
        "doctor": "矢野　勇人\n藤本　卓\n日浅　芳一\n宮本　和明",
        "first": "○",
        "name": "碩心館病院",
        "postal_code": "773-0014",
        "revisit": "○",
        "tel": "0885-32-3555",
        "url": "http://www.sekishinkan.or.jp/"
    },
    {
        "address": "徳島県鳴門市撫養町黒崎字八幡113-1",
        "cooperation": "徳島県鳴門病院（徳島県鳴門市撫養町黒崎字小谷32）",
        "department": "脳神経外科",
        "doctor": "津田　敏雄",
        "first": "",
        "name": "津田ブレインクリニック",
        "postal_code": "772-0001",
        "revisit": "○",
        "tel": "088-684-3171",
        "url": "http://tuda-brainclinic.com/"
    },
    {
        "address": "徳島県徳島市応神町東貞方字北野93-1",
        "cooperation": "徳島県立中央病院（徳島県徳島市蔵本町1丁目10-3）",
        "department": "耳鼻咽喉科\nアレルギー科\n小児科",
        "doctor": "棚本　洋文",
        "first": "○",
        "name": "とくしま耳鼻咽喉科クリニック",
        "postal_code": "771-1154",
        "revisit": "○",
        "tel": "088-683-3987",
        "url": "http://tokushima-jibika.jp"
    },
    {
        "address": "徳島県鳴門市大麻町池谷字大石50-1",
        "cooperation": "",
        "department": "内科",
        "doctor": "斉藤　恒雄",
        "first": "",
        "name": "大谷の星クリニック木漏れ日",
        "postal_code": "779-0303",
        "revisit": "○",
        "tel": "088-689-0910",
        "url": ""
    },
    {
        "address": "徳島県勝浦郡上勝町大字正木字西浦111番地7",
        "cooperation": "国民健康保険勝浦病院（徳島県勝浦郡勝浦町棚野字竹国13-\n2）",
        "department": "内科",
        "doctor": "幸田　朋也\n樫原　茂\n江川　創",
        "first": "○",
        "name": "国民健康保険上勝町診療所",
        "postal_code": "771-4505",
        "revisit": "○",
        "tel": "0885-44-5010",
        "url": ""
    },
    {
        "address": "徳島県那賀郡那賀町木頭北川字下モ伴71番地",
        "cooperation": "徳島県立海部病院(徳島県海部郡牟岐町大字中村字杉谷266)\n徳島県立中央病院（徳島県徳島市蔵本町1丁目10-3）",
        "department": "内科",
        "doctor": "平田　圭市郎",
        "first": "○",
        "name": "那賀町国民健康保険北川診療所",
        "postal_code": "771-6512",
        "revisit": "○",
        "tel": "0884-69-2201",
        "url": ""
    },
    {
        "address": "徳島県鳴門市撫養町黒崎字松島100",
        "cooperation": "",
        "department": "一般・小児・矯\n正歯科、口腔外\n科",
        "doctor": "益井　孝文",
        "first": "",
        "name": "益井歯科医院",
        "postal_code": "772-0001",
        "revisit": "○",
        "tel": "088-686-2337",
        "url": "https://www.tda.or.jp/index.php/awa-24/naruto/masui"
    },
    {
        "address": "徳島県小松島市中田町字土持21-28",
        "cooperation": "",
        "department": "一般・小児歯\n科、口腔外科",
        "doctor": "木下　直人",
        "first": "",
        "name": "木下歯科医院",
        "postal_code": "773-0015",
        "revisit": "○",
        "tel": "0885-33-0067",
        "url": "https://www.tda.or.jp/index.php/awa-11/komatsushima/kinoshita"
    },
    {
        "address": "徳島県小松島市松島町13-32",
        "cooperation": "",
        "department": "一般歯科、口腔\n外科",
        "doctor": "山本　修",
        "first": "〇",
        "name": "山本歯科医院",
        "postal_code": "773-0003",
        "revisit": "○",
        "tel": "0885-32-0084",
        "url": "https://www.tda.or.jp/index.php/awa-11/komatsushima/yamamotoshikaiin"
    },
    {
        "address": "徳島県阿南市学原町大深田27-20",
        "cooperation": "",
        "department": "一般・小児・矯\n正歯科、口腔外\n科",
        "doctor": "森　直基",
        "first": "",
        "name": "森歯科医院",
        "postal_code": "774-0014",
        "revisit": "○",
        "tel": "0884-22-0562",
        "url": "https://www.tda.or.jp/index.php/awa-23/anan/morishikaiin"
    },
    {
        "address": "徳島県美馬市脇町大字猪尻字若宮南139-2",
        "cooperation": "",
        "department": "一般歯科、口腔\n外科",
        "doctor": "細川　恵一",
        "first": "○",
        "name": "ほそかわ歯科クリニック",
        "postal_code": "779-3602",
        "revisit": "○",
        "tel": "0883-53-8211",
        "url": "https://www.tda.or.jp/index.php/awa-20/mima/hosokawa"
    }
]