[
    {
        "address": "青森県青森市浪岡大字女鹿沢字平野155-1",
        "cooperation": "",
        "department": "各診療科",
        "doctor": "高田　博仁\n他担当医師",
        "first": "",
        "name": "国立病院機構青森病院",
        "postal_code": "038-1331",
        "revisit": "○",
        "tel": "0172-62-4055",
        "url": "https://aomori.hosp.go.jp/"
    },
    {
        "address": "青森県青森市勝田1丁目14番20号",
        "cooperation": "",
        "department": "全科",
        "doctor": "全医師",
        "first": "",
        "name": "青森市民病院",
        "postal_code": "030-0821",
        "revisit": "○",
        "tel": "017－734-2171",
        "url": "https://www.city.aomori.aomori.jp/byouin/top.html"
    },
    {
        "address": "青森県青森市浪岡大字浪岡字平野180",
        "cooperation": "",
        "department": "内科",
        "doctor": "高橋　敏之\n吉谷　元\n坂本　有希",
        "first": "",
        "name": "青森市立浪岡病院",
        "postal_code": "038-1311",
        "revisit": "○",
        "tel": "0172-62-3111",
        "url": "https://www.city.aomori.aomori.jp/koho-kocho/shiseijouhou/aomorishi-konnamati/koukyoushisetsu/itiran/namiokabyouin.html"
    },
    {
        "address": "青森県青森市石江３丁目１番地",
        "cooperation": "",
        "department": "全診療科",
        "doctor": "各科担当医師",
        "first": "",
        "name": "医療法人雄心会　青森新都市病院",
        "postal_code": "038-0003",
        "revisit": "〇",
        "tel": "017-757-8750",
        "url": "http://aomorishintoshi-hp.yushinkai.jp/"
    },
    {
        "address": "青森県青森市浜田3丁目3-14",
        "cooperation": "",
        "department": "各診療科",
        "doctor": "各科担当医師",
        "first": "",
        "name": "医療法人 芙蓉会 村上病院",
        "postal_code": "037-0069",
        "revisit": "○（定期通院の方のみ\n対応）",
        "tel": "017-729-8888",
        "url": "http://www.fuyoukai.or.jp/murakami_h/"
    },
    {
        "address": "青森県大字雲谷字山吹93-1",
        "cooperation": "",
        "department": "精神科\n心療内科",
        "doctor": "村上　拓也\n他担当医師",
        "first": "",
        "name": "芙蓉会病院",
        "postal_code": "030-0133",
        "revisit": "○",
        "tel": "017-738-2214",
        "url": "http://www.fuyoukai.or.jp/fuyoukai_h/"
    },
    {
        "address": "青森県青森市合浦2丁目11番24号",
        "cooperation": "",
        "department": "内科\n外科",
        "doctor": "菊田　一貫\n西川　晋右\n竹村　龍哉\n小田桐　聡",
        "first": "〇",
        "name": "医療法人同仁会　浪打病院",
        "postal_code": "030-0902",
        "revisit": "〇",
        "tel": "017-741-4341",
        "url": "http：//namiuchi－hp.com/index.html"
    },
    {
        "address": "青森県青森市大字大谷字山ノ内16-3",
        "cooperation": "",
        "department": "精神科",
        "doctor": "川﨑一隆\n柿崎陽平\n吉村伊保子\n浜田美実",
        "first": "",
        "name": "社団法人慈恵会青い森病院",
        "postal_code": "030-0155",
        "revisit": "○",
        "tel": "017-729-3330",
        "url": "http://www.jikei-kai.org/aoimorihosp/index.html"
    },
    {
        "address": "青森県青森市花園２－２２－３",
        "cooperation": "",
        "department": "整形外科",
        "doctor": "新渡戸　剛",
        "first": "○",
        "name": "剛整形外科クリニック",
        "postal_code": "030-0966",
        "revisit": "○",
        "tel": "017-741-6100",
        "url": "http://notouch.jp"
    },
    {
        "address": "青森県青森市花園2丁目43-26",
        "cooperation": "青森県立中央病院（青森市東造道2丁目1-1）\n青森市民病院（青森市勝田1丁目14-20）",
        "department": "内科\n小児科",
        "doctor": "石田　均",
        "first": "○",
        "name": "医療法人いしだ医院",
        "postal_code": "030-0966",
        "revisit": "○",
        "tel": "017-744-3300",
        "url": "http://ishidaiin.com/"
    },
    {
        "address": "青森県青森市花園1丁目7-13",
        "cooperation": "",
        "department": "産科\n婦人科",
        "doctor": "田中　誠也",
        "first": "○",
        "name": "田中産婦人科クリニック",
        "postal_code": "030-0966",
        "revisit": "○",
        "tel": "017-744-4103",
        "url": ""
    },
    {
        "address": "青森県青森市緑2丁目1-3",
        "cooperation": "",
        "department": "脳神経外科",
        "doctor": "蛯名国彦",
        "first": "",
        "name": "えびな脳神経クリニック",
        "postal_code": "030-0845",
        "revisit": "○",
        "tel": "017-735-3000",
        "url": "http://www5e.biglobe.ne.jp/~ebinansc/"
    },
    {
        "address": "青森県青森市茶屋町13-9",
        "cooperation": "青森県立中央病院（青森市東造道2丁目1-1）",
        "department": "内科",
        "doctor": "木村健一",
        "first": "○",
        "name": "木村健一糖尿病・内分泌クリニック",
        "postal_code": "030-0904",
        "revisit": "○",
        "tel": "017-765-3100",
        "url": "http://kimurakenichi-clinic.com/"
    },
    {
        "address": "青森県青森市浜館4-14-4",
        "cooperation": "",
        "department": "内科",
        "doctor": "駒井　一雄",
        "first": "○",
        "name": "駒井胃腸科内科",
        "postal_code": "030-0947",
        "revisit": "○",
        "tel": "017-765-1500",
        "url": "http://www.komaiichoukanaika.jp/"
    },
    {
        "address": "青森県青森市勝田2丁目9-13",
        "cooperation": "",
        "department": "内科",
        "doctor": "武山　稔\n武山　倫子",
        "first": "",
        "name": "武山循環器科内科",
        "postal_code": "030-0821",
        "revisit": "○",
        "tel": "017-734-0111",
        "url": ""
    },
    {
        "address": "青森市松原3-2-5",
        "cooperation": "",
        "department": "内科",
        "doctor": "平井　裕一",
        "first": "",
        "name": "平井内科医院",
        "postal_code": "030-0813",
        "revisit": "○",
        "tel": "017-774-3355",
        "url": ""
    },
    {
        "address": "青森県青森市千富町1-4-16",
        "cooperation": "青森県立中央病院（青森市東造道2丁目1-1）\n青森市民病院（青森市勝田1丁目14-20）\n青森厚生病院（青森市新城山田488-1）",
        "department": "内科",
        "doctor": "福士　道夫",
        "first": "",
        "name": "福士胃腸科循環器科医院",
        "postal_code": "030-0854",
        "revisit": "○",
        "tel": "017-776-4558",
        "url": ""
    },
    {
        "address": "青森県青森市篠田1丁目10-19",
        "cooperation": "",
        "department": "泌尿器科\n内科\n皮膚科",
        "doctor": "福井　耕三",
        "first": "",
        "name": "福井ひ尿器科クリニック",
        "postal_code": "038-0011",
        "revisit": "○",
        "tel": "017-766-7100",
        "url": "http://kishiya"
    },
    {
        "address": "青森県青森市金沢1-5-7",
        "cooperation": "",
        "department": "整形外科",
        "doctor": "岸谷　正樹",
        "first": "",
        "name": "岸谷整形外科クリニック",
        "postal_code": "030-0853",
        "revisit": "○",
        "tel": "017-723-6881",
        "url": ""
    },
    {
        "address": "青森県青森市金沢4丁目16-27",
        "cooperation": "青森県立中央病院（青森市東造道2丁目1-1）\n青森市民病院（青森市勝田1丁目14-20）",
        "department": "皮膚科",
        "doctor": "長島弘明",
        "first": "",
        "name": "長島皮フ科クリニック",
        "postal_code": "030-0853",
        "revisit": "○",
        "tel": "017-776-1112",
        "url": ""
    },
    {
        "address": "青森県青森市西大野1丁目15-7",
        "cooperation": "",
        "department": "皮膚科",
        "doctor": "斎藤　英樹\n高橋　淳",
        "first": "",
        "name": "あおもり腎透析泌尿器科クリニック",
        "postal_code": "030-0856",
        "revisit": "○",
        "tel": "017-752-6353",
        "url": ""
    },
    {
        "address": "青森県青森市浪岡福田2丁目13-8",
        "cooperation": "黒石病院（黒石市北美町1-70）",
        "department": "整形外科",
        "doctor": "大竹　進",
        "first": "",
        "name": "大竹整形外科",
        "postal_code": "038-1306",
        "revisit": "○",
        "tel": "0172-62-3300",
        "url": "http://otake-ortho.com/"
    },
    {
        "address": "青森県青森市石江4丁目4番地3",
        "cooperation": "",
        "department": "総合内科\n脳神経外科",
        "doctor": "中野　朝子\n中野　高広",
        "first": "○",
        "name": "中野脳神経外科総合内科クリニック",
        "postal_code": "038-0003",
        "revisit": "○",
        "tel": "017-788-7200",
        "url": ""
    },
    {
        "address": "青森県青森市八重田2-1-6",
        "cooperation": "",
        "department": "内科",
        "doctor": "渡邊　智子",
        "first": "",
        "name": "医療法人清和会三川内医院",
        "postal_code": "030-0912",
        "revisit": "○",
        "tel": "017-736-8191",
        "url": "https://www.mikawanaika.com/"
    },
    {
        "address": "青森県青森市桂木4-6-37",
        "cooperation": "",
        "department": "乳腺外科\n肛門外科\n内科",
        "doctor": "伊藤　卓",
        "first": "",
        "name": "医療法人桂木クリニック",
        "postal_code": "030-0844",
        "revisit": "○",
        "tel": "017-773-6663",
        "url": "http://katsuragi-clinic.com/"
    },
    {
        "address": "青森県青森市八重田4-2-1ラ・セラ東バイパスショッピングセンター1階",
        "cooperation": "",
        "department": "眼科",
        "doctor": "伊藤　信一",
        "first": "",
        "name": "伊藤眼科クリニック",
        "postal_code": "030-0912",
        "revisit": "○",
        "tel": "017-718-5258",
        "url": "https://ganka.or.jp/"
    },
    {
        "address": "青森県青森市大字石江字江渡117-5",
        "cooperation": "青森県立中央病院（青森市東造道2-1-1）",
        "department": "内科",
        "doctor": "工藤　幹彦\n工藤　俊彦",
        "first": "○",
        "name": "工藤内科クリニック",
        "postal_code": "038-0003",
        "revisit": "○",
        "tel": "017-766-9107",
        "url": ""
    },
    {
        "address": "青森県青森市大野字山下171-7",
        "cooperation": "",
        "department": "内科",
        "doctor": "渡邊　拓",
        "first": "",
        "name": "たく内科クリニック",
        "postal_code": "030-0852",
        "revisit": "○",
        "tel": "017-752-1192",
        "url": ""
    },
    {
        "address": "青森県青森市大字新城字平岡175-23",
        "cooperation": "",
        "department": "胃腸科、内科、\n循環器科、呼吸\n器科、小児科",
        "doctor": "齋藤　吉春",
        "first": "",
        "name": "新城胃腸科内科",
        "postal_code": "038-0042",
        "revisit": "○",
        "tel": "017-788-8551",
        "url": ""
    },
    {
        "address": "青森県青森市奥野1-5-8",
        "cooperation": "青森県立中央病院（青森市東造道2丁目1-1）\n青森市民病院（青森市勝田1丁目14-20）",
        "department": "整形外科\nリウマチ科",
        "doctor": "佐藤　衛",
        "first": "○",
        "name": "佐藤整形外科・リウマチ科クリニック",
        "postal_code": "030-0841",
        "revisit": "○",
        "tel": "017-721-3755",
        "url": ""
    },
    {
        "address": "青森県青森市中佃1-1-30",
        "cooperation": "",
        "department": "内科",
        "doctor": "成田　祥耕\n成田　諭隆",
        "first": "",
        "name": "成田祥耕クリニック",
        "postal_code": "030-0963",
        "revisit": "○",
        "tel": "017-743-6511",
        "url": ""
    },
    {
        "address": "青森県青森市篠田1丁目9番11号",
        "cooperation": "",
        "department": "内科",
        "doctor": "畠山　隆",
        "first": "",
        "name": "青森クリニック",
        "postal_code": "038-0011",
        "revisit": "○",
        "tel": "017-783-2222",
        "url": ""
    },
    {
        "address": "青森県青森市青葉1-2-28",
        "cooperation": "",
        "department": "精神科\n心療内科\n内科",
        "doctor": "佐々木　俊徳",
        "first": "",
        "name": "青葉こころのクリニック",
        "postal_code": "030-0846",
        "revisit": "○",
        "tel": "017-762-5560",
        "url": "http://www.aoba-kokoro-c.com/"
    },
    {
        "address": "青森県青森市大字羽白字沢田39-4",
        "cooperation": "",
        "department": "内科\n小児科",
        "doctor": "町田　光司",
        "first": "○",
        "name": "まちだ内科クリニック",
        "postal_code": "038-0058",
        "revisit": "○",
        "tel": "017-788-6688",
        "url": ""
    },
    {
        "address": "青森県青森市はまなす2丁目6番11号",
        "cooperation": "青森県立中央病院（青森市東造道2-1-1）",
        "department": "耳鼻咽喉科",
        "doctor": "円山　宏洋",
        "first": "",
        "name": "八重田医院",
        "postal_code": "030-0919",
        "revisit": "○",
        "tel": "017-726-1188",
        "url": ""
    },
    {
        "address": "青森県青森市中佃2丁目18番26号",
        "cooperation": "",
        "department": "内科\n糖尿病代謝内科",
        "doctor": "田澤康明",
        "first": "",
        "name": "たざわ生活習慣病クリニック",
        "postal_code": "030-0963",
        "revisit": "○",
        "tel": "017-752-8386",
        "url": ""
    },
    {
        "address": "青森県青森市浪岡大字浪岡字浅井205",
        "cooperation": "津軽保健生活協同組合健生病院（青森県弘前市扇町2丁\n目2-2）",
        "department": "内科\n循環器科\n消化器科\n呼吸器科",
        "doctor": "石森　伸二",
        "first": "",
        "name": "津軽保健生活協同組合津軽医院",
        "postal_code": "038-1311",
        "revisit": "○",
        "tel": "0172-62-3101",
        "url": ""
    },
    {
        "address": "青森県青森市沖館5-5-26",
        "cooperation": "",
        "department": "内科\n外科",
        "doctor": "松本　香",
        "first": "",
        "name": "まつもと内科外科クリニック",
        "postal_code": "038-0002",
        "revisit": "○",
        "tel": "017-783-3030",
        "url": ""
    },
    {
        "address": "青森県青森市浪打2-3-1",
        "cooperation": "",
        "department": "内科",
        "doctor": "山敷　宏正\n山敷　潤子",
        "first": "",
        "name": "やましき内科クリニック",
        "postal_code": "030-0961",
        "revisit": "○",
        "tel": "017-718-3600",
        "url": ""
    },
    {
        "address": "青森県青森市東大野1-4-1",
        "cooperation": "",
        "department": "眼科",
        "doctor": "水谷　英之\n水谷　夏子",
        "first": "",
        "name": "みずたに眼科",
        "postal_code": "030-0847",
        "revisit": "○",
        "tel": "017-752-0226",
        "url": ""
    },
    {
        "address": "青森県青森市浪打2-10-12",
        "cooperation": "",
        "department": "脳外科",
        "doctor": "中村　公明",
        "first": "",
        "name": "なかむら脳外科頭痛クリニック",
        "postal_code": "030-0961",
        "revisit": "○",
        "tel": "017-744-1165",
        "url": ""
    },
    {
        "address": "青森県青森市長島2-3-4",
        "cooperation": "",
        "department": "内科\n循環器科\n呼吸器科",
        "doctor": "齊藤　大太",
        "first": "○",
        "name": "斉藤内科県庁前クリニック",
        "postal_code": "030-0963",
        "revisit": "○",
        "tel": "017-731-3110",
        "url": "https://itp.ne.jp/info/021411641117231120/"
    },
    {
        "address": "青森県青森市花園2丁目43-18",
        "cooperation": "青森県立中央病院（青森市東造道2丁目1-1）\n青森市民病院（青森市勝田1丁目14-20）",
        "department": "泌尿器科",
        "doctor": "北川　柾彦",
        "first": "○",
        "name": "北川ひ尿器科クリニック",
        "postal_code": "030-0966",
        "revisit": "○",
        "tel": "017-765-3355",
        "url": ""
    },
    {
        "address": "青森県青森市岡造道2丁目2-25",
        "cooperation": "",
        "department": "内科",
        "doctor": "佐々木　義雄",
        "first": "",
        "name": "佐々木胃腸科内科",
        "postal_code": "030-0914",
        "revisit": "○",
        "tel": "017-741-1155",
        "url": ""
    },
    {
        "address": "青森県青森市古川1-21-18NARAYAビル2F",
        "cooperation": "青森県立中央病院（青森市東造道2丁目1-1）\n青森市民病院（青森市勝田1丁目14-20）",
        "department": "耳鼻咽喉科\nアレルギー科",
        "doctor": "谷田　次郎",
        "first": "",
        "name": "たにた耳鼻咽喉科クリニック",
        "postal_code": "030-0862",
        "revisit": "○",
        "tel": "017-774-8733",
        "url": ""
    },
    {
        "address": "青森県弘前市本町53",
        "cooperation": "",
        "department": "全科",
        "doctor": "各科医師",
        "first": "",
        "name": "弘前大学医学部附属病院",
        "postal_code": "036-8563",
        "revisit": "○",
        "tel": "0172-33-5111",
        "url": "http://www.med.hirosaki-u.ac.jp/hospital/"
    },
    {
        "address": "青森県黒石市北美町1丁目70番地",
        "cooperation": "",
        "department": "全診療科",
        "doctor": "全医師",
        "first": "",
        "name": "黒石病院",
        "postal_code": "036-0541",
        "revisit": "○",
        "tel": "0172-52-2121",
        "url": "http://hospital-kuroishi.jp/"
    },
    {
        "address": "青森県北津軽郡板柳町大字灰沼字岩井７４－２",
        "cooperation": "",
        "department": "内科",
        "doctor": "照井　健",
        "first": "",
        "name": "国民健康保険板柳中央病院",
        "postal_code": "038-3672",
        "revisit": "○",
        "tel": "0172-73-3231",
        "url": "https://www.town.itayanagi.aomori.jp/life/health/kyukyu.html"
    },
    {
        "address": "青森県弘前市扇町2-2-2",
        "cooperation": "健生クリニック（青森県弘前市大字扇町二丁目2番12）",
        "department": "整形外外科緩和\nケア科小児科産\n婦人科",
        "doctor": "各科担当医師",
        "first": "",
        "name": "健生病院",
        "postal_code": "036-8162",
        "revisit": "〇",
        "tel": "0172-55-7717",
        "url": "https://www.kensei-hp.jp/"
    },
    {
        "address": "青森県弘前市和泉2丁目19-1",
        "cooperation": "国立病院機構弘前病院（青森県弘前市大字富野町1番\n地）",
        "department": "内科",
        "doctor": "町田純一郎\n他担当医師2名",
        "first": "",
        "name": "弘前小野病院",
        "postal_code": "036-8053",
        "revisit": "○",
        "tel": "0172-27-1431",
        "url": "https://www.sinai-sakura.com/"
    },
    {
        "address": "青森県弘前市吉野町3番地1",
        "cooperation": "鳴海病院（青森県弘前市大字品川町19）",
        "department": "内科\n外科",
        "doctor": "賀佐　富二彦\n他担当医師",
        "first": "",
        "name": "弘前中央病院",
        "postal_code": "036-8188",
        "revisit": "○",
        "tel": "0172-36-7111",
        "url": "http://www.myclinic.ne.jp/hirochu/pc/index.html"
    },
    {
        "address": "青森県南津軽郡藤崎町大字榊字亀田2-1",
        "cooperation": "",
        "department": "内科",
        "doctor": "荘司　貞志",
        "first": "",
        "name": "ときわ会病院",
        "postal_code": "038-1216",
        "revisit": "〇",
        "tel": "0172-65-3771",
        "url": "https://www.tokiwakai.or.jp/tokiwa/"
    },
    {
        "address": "青森県弘前市品川町19",
        "cooperation": "弘前中央病院（弘前市吉野町3-1）",
        "department": "内科\n外科\n放射線科",
        "doctor": "淀野　啓\n他担当医師5名",
        "first": "○",
        "name": "鳴海病院",
        "postal_code": "036-8183",
        "revisit": "○",
        "tel": "0172-32-5211",
        "url": "http://www.narumihospital.or.jp/"
    },
    {
        "address": "青森県弘前市大字境関字西田59-1",
        "cooperation": "",
        "department": "整形外科\n内科",
        "doctor": "各医師",
        "first": "",
        "name": "弘前記念病院",
        "postal_code": "036-8076",
        "revisit": "○",
        "tel": "0172-28-1211",
        "url": "http://www.hirosaki-kinen.or.jp/"
    },
    {
        "address": "青森県弘前市大字和泉2丁目17-1",
        "cooperation": "",
        "department": "精神科\n神経内科\n心療内科",
        "doctor": "吉田　和貴\n須藤　武行",
        "first": "",
        "name": "聖康会病院",
        "postal_code": "036-8053",
        "revisit": "○",
        "tel": "0172-27-4121",
        "url": "http://www.seikoukai-hospital.or.jp/"
    },
    {
        "address": "青森県黒石市ちとせ1丁目139",
        "cooperation": "",
        "department": "内科",
        "doctor": "北山　武良",
        "first": "○",
        "name": "ちとせクリニック",
        "postal_code": "036-0356",
        "revisit": "○",
        "tel": "0172-53-7228",
        "url": ""
    },
    {
        "address": "青森県弘前市元大工町36番地1",
        "cooperation": "",
        "department": "内科",
        "doctor": "伊東　重豪",
        "first": "",
        "name": "医療法人社団伊東クリニック",
        "postal_code": "036-8082",
        "revisit": "○",
        "tel": "0172-32-0630",
        "url": "https://www.itoclinic-med.com/"
    },
    {
        "address": "青森県南津軽郡藤崎町西豊田1丁目2",
        "cooperation": "ときわ会病院（藤崎町大字榊字亀田2-1）",
        "department": "内科\n外科\n婦人科",
        "doctor": "石塚　武夫\n小柳　雅是\n前田　由子　他",
        "first": "",
        "name": "藤崎町立藤崎診療所",
        "postal_code": "038-3803",
        "revisit": "○",
        "tel": "0172-75-4111",
        "url": ""
    },
    {
        "address": "青森県弘前市植田町8",
        "cooperation": "",
        "department": "内科\n糖尿病内科",
        "doctor": "五日市　敬",
        "first": "",
        "name": "五日市内科医院",
        "postal_code": "036-8023",
        "revisit": "○",
        "tel": "0172-35-4666",
        "url": "http://www.i-med.jp/"
    },
    {
        "address": "青森県弘前市川先2丁目3-7",
        "cooperation": "",
        "department": "内科",
        "doctor": "青山　仁志",
        "first": "○",
        "name": "青山胃腸科内科クリニック",
        "postal_code": "036-8103",
        "revisit": "○",
        "tel": "0172-27-2323",
        "url": ""
    },
    {
        "address": "青森県弘前市藤野2丁目６−９",
        "cooperation": "国立病院機構弘前病院（青森県弘前市大字富野町1番\n地）",
        "department": "整形外科",
        "doctor": "横山　隆文",
        "first": "〇",
        "name": "よこやま整形外科",
        "postal_code": "036-8326",
        "revisit": "〇",
        "tel": "0172-31-2277",
        "url": ""
    },
    {
        "address": "青森県弘前市駅前町14-1",
        "cooperation": "",
        "department": "整形外科リハビリテーション科成田　俊介",
        "doctor": "",
        "first": "○",
        "name": "弘前駅前整形外科クリニック",
        "postal_code": "036-8003",
        "revisit": "○",
        "tel": "0172-39-7555",
        "url": "http://www.hirosaki-ekimae.com/"
    },
    {
        "address": "青森県南津軽郡藤崎町藤崎字武元5-5",
        "cooperation": "ときわ会病院（藤崎町大字榊字亀田2-1）",
        "department": "小児科\n内科",
        "doctor": "関場慶博",
        "first": "○",
        "name": "せきばクリニック",
        "postal_code": "038-3802",
        "revisit": "○",
        "tel": "0172-75-3020",
        "url": "http://sekibaclinic.jupiter.bindcloud.jp/"
    },
    {
        "address": "青森県弘前市青山3-8-2",
        "cooperation": "国立弘前病院（青森県弘前市大字富野町1番地）\n弘前市立病院（青森県弘前市大町3丁目8-1）",
        "department": "内科",
        "doctor": "相原守夫",
        "first": "○",
        "name": "相原内科医院",
        "postal_code": "036-8062",
        "revisit": "○",
        "tel": "0172-33-0055",
        "url": "http://aihara-hp.la.coocan.jp/clinic2.html"
    },
    {
        "address": "青森県弘前市大字石川字石川97番地",
        "cooperation": "国立病院機構弘前病院（青森県弘前市大字富野町1番\n地）\n弘前市立病院（青森県弘前市大字大町3丁目8番地１）",
        "department": "内科（電話）、\n内科・肝臓内\n科・消化器内科\n（オンライン）",
        "doctor": "電話\n（工藤幸志）、\nオンライン\n（工藤幸正）",
        "first": "〇",
        "name": "工藤医院",
        "postal_code": "036-8124",
        "revisit": "〇",
        "tel": "0172-92-3316",
        "url": "http://onkoukai.or.jp/"
    },
    {
        "address": "青森県弘前市上鞘師町17-3",
        "cooperation": "",
        "department": "内科\n循環器科",
        "doctor": "福原　泰樹",
        "first": "",
        "name": "医療法人樹会福原循環器内科クリニック",
        "postal_code": "036-8354",
        "revisit": "○",
        "tel": "0172-32-0528",
        "url": ""
    },
    {
        "address": "青森県弘前市大字松原東2丁目5-2",
        "cooperation": "国立病院機構弘前病院（青森県弘前市大字富野町1番\n地）\n津軽保健生活協同組合健生病院（青森県弘前市扇町2丁\n目2-2）",
        "department": "内科\n小児科",
        "doctor": "小石　陽一",
        "first": "○",
        "name": "こいし内科クリニック",
        "postal_code": "036-8141",
        "revisit": "○",
        "tel": "0172-87-7111",
        "url": ""
    },
    {
        "address": "青森県弘前市表町2-1　駅ビルアプリーズ4F",
        "cooperation": "",
        "department": "外科",
        "doctor": "栗田　武彰",
        "first": "",
        "name": "くりたクリニック",
        "postal_code": "036-8093",
        "revisit": "○",
        "tel": "0172-31-2100",
        "url": ""
    },
    {
        "address": "青森県弘前市茂森新町1-6-4",
        "cooperation": "",
        "department": "内科\n小児科",
        "doctor": "澤田　直也\n澤田　美彦",
        "first": "○",
        "name": "沢田内科医院",
        "postal_code": "036-8261",
        "revisit": "○",
        "tel": "0172-37-7755",
        "url": ""
    },
    {
        "address": "青森県弘前市大字扇町二丁目2-12",
        "cooperation": "津軽保健生活協同組合　健生病院（青森県弘前市大字扇\n町二丁目2-2）",
        "department": "内科\n精神科\n泌尿器科",
        "doctor": "各科担当医師",
        "first": "",
        "name": "津軽保健生活協同組合健生クリニック",
        "postal_code": "036-8104",
        "revisit": "〇",
        "tel": "0172-55-7707",
        "url": "http://www.kensei-hp.jp"
    },
    {
        "address": "青森県弘前市高田5-2-3",
        "cooperation": "",
        "department": "耳鼻咽喉科",
        "doctor": "南場淳司",
        "first": "",
        "name": "なんば耳鼻咽喉科",
        "postal_code": "036-8084",
        "revisit": "〇",
        "tel": "0172-55-8749",
        "url": "http://namba-ent.com/"
    },
    {
        "address": "青森県弘前市神田2-6-7",
        "cooperation": "弘前病院（青森県弘前市大字富野町1番地）\n津軽保健生活協同組合健生病院（青森県弘前市扇町2丁\n目2-2）",
        "department": "小児科\n内科",
        "doctor": "柿崎　良樹",
        "first": "○",
        "name": "かきざき小児科アレルギー科クリニック",
        "postal_code": "036-8061",
        "revisit": "○",
        "tel": "0172-31-2233",
        "url": "http://kakizaki-clinic.com"
    },
    {
        "address": "青森県弘前市松森町124",
        "cooperation": "",
        "department": "内科",
        "doctor": "山形　亮",
        "first": "○",
        "name": "山形内科クリニック",
        "postal_code": "036-8184",
        "revisit": "○",
        "tel": "0172-37-5811",
        "url": "http://www.yamagataclinic.com/"
    },
    {
        "address": "青森県弘前市大開1-3-3",
        "cooperation": "",
        "department": "内科",
        "doctor": "三尾　佳久",
        "first": "",
        "name": "大開ファミリークリニック",
        "postal_code": "036-8247",
        "revisit": "○",
        "tel": "0172-88-2120",
        "url": ""
    },
    {
        "address": "青森県弘前市中野2丁目1-15",
        "cooperation": "",
        "department": "耳鼻科\n小児科",
        "doctor": "秋田　三和興\n秋田　直子",
        "first": "",
        "name": "よしだ耳鼻科小児科",
        "postal_code": "036-8155",
        "revisit": "○",
        "tel": "0172-33-2306",
        "url": ""
    },
    {
        "address": "青森県弘前市大字桔梗野2丁目13番地5",
        "cooperation": "国立病院機構弘前病院（青森県弘前市大字富野町1番\n地）\n津軽保健生活協同組合健生病院（青森県弘前市扇町2丁\n目2-2）",
        "department": "内科\n小児科",
        "doctor": "",
        "first": "",
        "name": "桔梗野こどもおとなクリニック",
        "postal_code": "036-8227",
        "revisit": "○",
        "tel": "0172-38-3080",
        "url": ""
    },
    {
        "address": "青森県弘前市桔梗野1丁目3-3",
        "cooperation": "",
        "department": "内科\n小児科",
        "doctor": "相楽　衛男\n相楽　繁樹",
        "first": "○",
        "name": "医療法人楽清会さがらクリニック",
        "postal_code": "036-8227",
        "revisit": "○",
        "tel": "0172-37-2070",
        "url": ""
    },
    {
        "address": "青森県弘前市北横町50-1",
        "cooperation": "",
        "department": "眼科",
        "doctor": "目時　友美",
        "first": "",
        "name": "めとき眼科クリニック",
        "postal_code": "036-8046",
        "revisit": "○",
        "tel": "0172-40-0691",
        "url": ""
    },
    {
        "address": "青森県弘前市山下町４－１",
        "cooperation": "独立行政法人国立病院機構弘前病院（青森県弘前市大字\n富野町1番地）\n弘前大学附属病院（青森県弘前市本町53）",
        "department": "整形外科",
        "doctor": "近江　洋一",
        "first": "○",
        "name": "医療法人明洋会近江整形外科",
        "postal_code": "036-8011",
        "revisit": "○",
        "tel": "0172-32-2121",
        "url": "http://www7a.biglobe.ne.jp/~OMI_SEIKEI/"
    },
    {
        "address": "青森県黒石市ちとせ3丁目7",
        "cooperation": "津軽保健生活協同組合健生病院（青森県弘前市大字扇町\n2丁目2-2）",
        "department": "内科\n小児科",
        "doctor": "坂戸　慶一郎",
        "first": "",
        "name": "津軽保健生活協同組健生黒石診療所",
        "postal_code": "036-0356",
        "revisit": "○",
        "tel": "0172-53-3015",
        "url": "https://www.tsugaru-health.coop/clinics_kuroishi.html"
    },
    {
        "address": "青森県平川市碇ヶ関三笠山120番地1",
        "cooperation": "",
        "department": "内科",
        "doctor": "奥口　知行",
        "first": "○",
        "name": "碇ヶ関診療所",
        "postal_code": "038-0101",
        "revisit": "○",
        "tel": "0172-45-2780",
        "url": "https://www.city.hirakawa.lg.jp/fukushi/shinryoujo/ikarigaseki/"
    },
    {
        "address": "青森県弘前市大字栄町1丁目2-6",
        "cooperation": "",
        "department": "内科\n外科\n整形外科",
        "doctor": "鳴海　康方",
        "first": "○",
        "name": "康安外科内科医院",
        "postal_code": "036-8336",
        "revisit": "○",
        "tel": "0172-33-6262",
        "url": ""
    },
    {
        "address": "青森県八戸市吹上3丁目13番1号",
        "cooperation": "",
        "department": "内科\n神経内科\n小児科",
        "doctor": "関根　耕作\n他担当医師5名",
        "first": "○",
        "name": "国立病院機構八戸病院",
        "postal_code": "031-0003",
        "revisit": "○",
        "tel": "0178-45-6111",
        "url": "https://hachinohe.hosp.go.jp/about/index.html"
    },
    {
        "address": "八戸市田向三丁目１番１号",
        "cooperation": "",
        "department": "内科、外科、小\n児科他 全31科",
        "doctor": "三浦　一章事業\n管理者\n今　明秀院長\nほか",
        "first": "",
        "name": "八戸市立市民病院",
        "postal_code": "031-8555",
        "revisit": "○",
        "tel": "0178-72-5111",
        "url": "http://www.hospital.hachinohe.aomori.jp"
    },
    {
        "address": "青森県八戸市大字白銀町字南ヶ丘1番地",
        "cooperation": "",
        "department": "各診療科",
        "doctor": "各科担当医師",
        "first": "",
        "name": "青森労災病院",
        "postal_code": "031-8551",
        "revisit": "○",
        "tel": "0178-33-1551",
        "url": "http://www.aomorih.johas.go.jp/"
    },
    {
        "address": "青森県三戸郡三戸町大字川守田字沖中9-1",
        "cooperation": "",
        "department": "内科、小児科、\n産婦人科、眼\n科、耳鼻咽喉科\n等",
        "doctor": "東山　明弘他6\n担当医師\nその他非常勤医\n師",
        "first": "",
        "name": "三戸町国民健康保険三戸中央病院",
        "postal_code": "039-0141",
        "revisit": "○",
        "tel": "0179-20-1131",
        "url": "https://hospital.town.sannohe.aomori.jp/"
    },
    {
        "address": "青森県八戸市大字大久保字大山31-2",
        "cooperation": "",
        "department": "内科\n整形外科",
        "doctor": "廣田　茂\n他担当医師3名",
        "first": "",
        "name": "総合リハビリ美保野病院",
        "postal_code": "031-0833",
        "revisit": "○",
        "tel": "0178-25-0111",
        "url": "http://www.mihono.jp"
    },
    {
        "address": "青森県八戸市湊高台2丁目4-6",
        "cooperation": "",
        "department": "各診療科",
        "doctor": "各科担当医師",
        "first": "",
        "name": "八戸平和病院",
        "postal_code": "031-0823",
        "revisit": "○",
        "tel": "0178-31-2222",
        "url": "http://www.heiwa-hp.or.jp/"
    },
    {
        "address": "青森県三戸郡南部町大字沖田面字千刈52-2",
        "cooperation": "三戸中央病院（青森県三戸郡三戸町川守田字沖中9-1）",
        "department": "内科\n外科",
        "doctor": "小原　正和\n小笠原　博",
        "first": "",
        "name": "南部病院",
        "postal_code": "039-0105",
        "revisit": "〇",
        "tel": "0179-34-3131",
        "url": "http://nanbu-hp.or.jp"
    },
    {
        "address": "青森県八戸市長者3丁目3番23号",
        "cooperation": "八戸市立市民病院（八戸市田向三丁目1-1）\n八戸赤十字病院（八戸市大字田面木字中明戸2）",
        "department": "整形外科\n循環器内科",
        "doctor": "西村慎一\n他担当医師4名",
        "first": "",
        "name": "室岡整形外科記念病院",
        "postal_code": "031-0021",
        "revisit": "○",
        "tel": "0178-46-1000",
        "url": "https://www.hi-net.ne.jp/murooka/"
    },
    {
        "address": "八戸市大久保字大塚17-729",
        "cooperation": "八戸市立市民病院（八戸市田向三丁目1-1）\n八戸赤十字病院（八戸市大字田面木字中明戸2）\n青森労災病院（八戸市大字白銀町南が丘1）",
        "department": "整形外科\n小児科",
        "doctor": "盛島　利文\n長沖　隼英\n黒川　智子\n有吉　　忍",
        "first": "〇",
        "name": "青森県立はまなす医療療育センター",
        "postal_code": "031-0833",
        "revisit": "〇",
        "tel": "0178-31-5005",
        "url": "http://www.aomori.jrc.or.jp/hamanasu00.html"
    },
    {
        "address": "青森県八戸市大工町10番地",
        "cooperation": "",
        "department": "内科",
        "doctor": "於本 淳\n於本　晴美\n於本　章",
        "first": "",
        "name": "於本病院",
        "postal_code": "031-0036",
        "revisit": "○",
        "tel": "0178-43-4647",
        "url": ""
    },
    {
        "address": "青森県八戸市田面木赤坂16-3",
        "cooperation": "",
        "department": "精神科\n心療内科\n内科",
        "doctor": "深澤　隆\n他担当医師",
        "first": "",
        "name": "青南病院",
        "postal_code": "039-1104",
        "revisit": "○",
        "tel": "0178-27-2016",
        "url": "http://www.seijin.or.jp/"
    },
    {
        "address": "青森県八戸市大字八幡字樋田8-1",
        "cooperation": "",
        "department": "精神科",
        "doctor": "青木直人\n他担当医師４名",
        "first": "",
        "name": "さくら病院",
        "postal_code": "039-1105",
        "revisit": "○",
        "tel": "0178-70-2011",
        "url": "https://www.sinai-sakura.com/"
    },
    {
        "address": "青森県八戸市大字新井田出口平17",
        "cooperation": "",
        "department": "精神科",
        "doctor": "北條　敬\n他外来担当医師",
        "first": "",
        "name": "社会医療法人　松平病院",
        "postal_code": "031-0813",
        "revisit": "○",
        "tel": "0178-25-3217",
        "url": ""
    },
    {
        "address": "青森県八戸市日計1丁目2番51号",
        "cooperation": "八戸市立市民病院（八戸市田向三丁目1-1）\n八戸赤十字病院（八戸市大字田面木字中明戸2）\n青森労災病院（八戸市大字白銀町南が丘1）",
        "department": "皮膚科",
        "doctor": "山谷　眞吾",
        "first": "",
        "name": "きく皮膚科",
        "postal_code": "039-1169",
        "revisit": "○",
        "tel": "0178-21-1611",
        "url": "http://www.hachinohe.jp/byouinch/byo.kiku.hihu.html"
    },
    {
        "address": "青森県八戸市日計1丁目2-45",
        "cooperation": "",
        "department": "内科\n循環器科\n消化器科\n呼吸器科",
        "doctor": "堰合　恭弘",
        "first": "",
        "name": "せきあい内科",
        "postal_code": "039-1169",
        "revisit": "○",
        "tel": "0178-21-1155",
        "url": ""
    },
    {
        "address": "青森県八戸市売市4丁目7番14号",
        "cooperation": "",
        "department": "整形外科",
        "doctor": "工藤　祐喜",
        "first": "",
        "name": "くどう整形外科クリニック",
        "postal_code": "031-0073",
        "revisit": "○",
        "tel": "0178-47-2411",
        "url": "http://koc2014.jp/"
    },
    {
        "address": "青森県八戸市東白山台3-20-3",
        "cooperation": "八戸市立市民病院（八戸市田向三丁目1-1）\n八戸赤十字病院（八戸市大字田面木字中明戸2）\n青森労災病院（八戸市大字白銀町南が丘1）",
        "department": "循環器内科\n呼吸器内科\n内科",
        "doctor": "吉田　一弘",
        "first": "",
        "name": "聖マリアハートクリニック",
        "postal_code": "039-1111",
        "revisit": "○",
        "tel": "0178-70-1555",
        "url": "http://www.stmarysheartclinic.jp/"
    },
    {
        "address": "青森県八戸市南類家2-17-28",
        "cooperation": "八戸市立市民病院（八戸市田向三丁目1-1）",
        "department": "耳鼻咽喉科\nアレルギー科",
        "doctor": "西村　哲也",
        "first": "○",
        "name": "医療法人西村耳鼻咽喉科医院",
        "postal_code": "031-0004",
        "revisit": "○",
        "tel": "0178-24-3381",
        "url": "http://nishimura-ent.main.jp/"
    },
    {
        "address": "青森県八戸市城下4-4-18",
        "cooperation": "八戸市立市民病院（八戸市田向三丁目1-1）\n八戸赤十字病院（八戸市大字田面木字中明戸2）\n青森労災病院（八戸市大字白銀町南が丘1）",
        "department": "整形外科\nリウマチ科",
        "doctor": "八重垣　誠",
        "first": "○",
        "name": "城下やえがき整形外科",
        "postal_code": "031-0072",
        "revisit": "○",
        "tel": "0178-73-7380",
        "url": "https://88clinic.jp/"
    },
    {
        "address": "青森県八戸市類家4丁目21-7",
        "cooperation": "",
        "department": "内科\n消化器内科",
        "doctor": "八森　久",
        "first": "0",
        "name": "はち内科・消化器内科クリニック",
        "postal_code": "031-0001",
        "revisit": "○",
        "tel": "0178-38-8033",
        "url": "https://www.hachinai.info/"
    },
    {
        "address": "青森県八戸市大字尻内町字八百刈26-3",
        "cooperation": "",
        "department": "内科",
        "doctor": "鈴木　和夫",
        "first": "",
        "name": "鈴木内科医院",
        "postal_code": "039-1101",
        "revisit": "○",
        "tel": "0178-27-2752",
        "url": ""
    },
    {
        "address": "青森県八戸市白銀町字浜崖7-29",
        "cooperation": "",
        "department": "整形外科",
        "doctor": "山田　史朗",
        "first": "",
        "name": "山田整形外科クリニック",
        "postal_code": "031-0822",
        "revisit": "○",
        "tel": "0178-32-2700",
        "url": ""
    },
    {
        "address": "青森県八戸市城下四丁目１１番１１号",
        "cooperation": "",
        "department": "内科\n小児科",
        "doctor": "小倉　和也",
        "first": "○",
        "name": "医療法人はちのへファミリークリニック",
        "postal_code": "031-0072",
        "revisit": "○",
        "tel": "0178-72-3000",
        "url": "http://hachifc.jp/"
    },
    {
        "address": "青森県八戸市南類家2-17-25",
        "cooperation": "八戸市立市民病院（八戸市田向三丁目1-1）",
        "department": "整形外科",
        "doctor": "吉野　孝",
        "first": "",
        "name": "よしの整形外科",
        "postal_code": "031-0004",
        "revisit": "○",
        "tel": "0178-73-8016",
        "url": "http://www.myclinic.ne.jp/yoshino_orth/pc/index.html"
    },
    {
        "address": "青森県八戸市吹上3-5-3",
        "cooperation": "八戸市立市民病院（八戸市田向三丁目1-1）\n八戸赤十字病院（八戸市大字田面木字中明戸2）",
        "department": "内科",
        "doctor": "村井　千尋",
        "first": "",
        "name": "村井内科クリニック",
        "postal_code": "031-0003",
        "revisit": "○",
        "tel": "0178-43-5500",
        "url": ""
    },
    {
        "address": "青森県八戸市下長1丁目6-6",
        "cooperation": "",
        "department": "内科\n耳鼻科",
        "doctor": "高木　伸也\n高木　明子",
        "first": "",
        "name": "高木クリニック",
        "postal_code": "039-1164",
        "revisit": "○",
        "tel": "0178-20-5566",
        "url": ""
    },
    {
        "address": "青森県八戸市根城4丁目20番1号",
        "cooperation": "",
        "department": "眼科",
        "doctor": "大島　真理",
        "first": "",
        "name": "大島眼科",
        "postal_code": "039-1166",
        "revisit": "○",
        "tel": "0178-72-1654",
        "url": ""
    },
    {
        "address": "青森県八戸市大字尻内町字内田1-1",
        "cooperation": "八戸赤十字病院（八戸市大字田面木字中明戸2）",
        "department": "内科\n外科",
        "doctor": "小俣　高宏",
        "first": "",
        "name": "西口内科",
        "postal_code": "039-1101",
        "revisit": "○",
        "tel": "0179-27-8808",
        "url": ""
    },
    {
        "address": "青森県八戸市吹上3丁目6-16",
        "cooperation": "",
        "department": "内科",
        "doctor": "坂本 良明",
        "first": "",
        "name": "坂本内科クリニック",
        "postal_code": "031-0003",
        "revisit": "○",
        "tel": "0178-24-5566",
        "url": ""
    },
    {
        "address": "青森県八戸市売市2-11-12",
        "cooperation": "",
        "department": "内科\n循環器内科\n呼吸器内科\n胃腸内科",
        "doctor": "萩生　直徳",
        "first": "",
        "name": "萩生内科医院",
        "postal_code": "031-0073",
        "revisit": "○",
        "tel": "0178-24-4613",
        "url": ""
    },
    {
        "address": "青森県八戸市鮫町持越沢25-1",
        "cooperation": "",
        "department": "内科",
        "doctor": "嶋田哲二",
        "first": "",
        "name": "嶋田医院",
        "postal_code": "031-0841",
        "revisit": "○",
        "tel": "0178-33-1785",
        "url": ""
    },
    {
        "address": "青森県八戸市大字糠塚字下道7-32",
        "cooperation": "",
        "department": "内科",
        "doctor": "松原　潔\n松本　立也",
        "first": "○",
        "name": "ちょうじゃの森内科クリニック",
        "postal_code": "031-0022",
        "revisit": "○",
        "tel": "0178-43-6516",
        "url": ""
    },
    {
        "address": "青森県三戸郡階上町大字道仏字天当平1-189",
        "cooperation": "",
        "department": "内科",
        "doctor": "小松　修",
        "first": "",
        "name": "小松内科医院",
        "postal_code": "039-1201",
        "revisit": "○",
        "tel": "0178-88-5515",
        "url": "http://www.komatsunaika.com/"
    },
    {
        "address": "青森県八戸市根城1丁目5-5",
        "cooperation": "",
        "department": "内科",
        "doctor": "平賀　絢子",
        "first": "",
        "name": "平賀内科医院",
        "postal_code": "039-1166",
        "revisit": "○",
        "tel": "0178-22-8209",
        "url": ""
    },
    {
        "address": "青森県八戸市根城5-2-16",
        "cooperation": "",
        "department": "小児科\n内科",
        "doctor": "滝沢　鷹太郎",
        "first": "",
        "name": "滝沢小児科・内科医院",
        "postal_code": "039-1166",
        "revisit": "○",
        "tel": "0178-41-1178",
        "url": "http://www.takisawa-clinic.com/"
    },
    {
        "address": "青森県八戸市根城1-14-11",
        "cooperation": "八戸市立市民病院（八戸市田向三丁目1-1）\n八戸赤十字病院（八戸市大字田面木字中明戸2）\n青森労災病院（八戸市大字白銀町南が丘1）",
        "department": "皮膚科",
        "doctor": "北村　英彦",
        "first": "",
        "name": "北村皮膚科",
        "postal_code": "039-1166",
        "revisit": "○",
        "tel": "0178-43-1325",
        "url": ""
    },
    {
        "address": "青森県八戸市湊高台5丁目13-26",
        "cooperation": "",
        "department": "整形外科",
        "doctor": "和田　誠久",
        "first": "",
        "name": "和田整形外科クリニック",
        "postal_code": "031-0823",
        "revisit": "○",
        "tel": "0178-38-0152",
        "url": "https://ortho-wada.com/"
    },
    {
        "address": "青森県八戸市根城5丁目1-2",
        "cooperation": "",
        "department": "婦人科",
        "doctor": "真鍋　麻美\n向井田　理佳",
        "first": "",
        "name": "麻美レディースクリニック",
        "postal_code": "039-1166",
        "revisit": "○",
        "tel": "0178-807123",
        "url": ""
    },
    {
        "address": "青森県八戸市田向2丁目5-28",
        "cooperation": "八戸市立市民病院（八戸市田向三丁目1-1）\n八戸赤十字病院（八戸市大字田面木字中明戸2）\n青森労災病院（八戸市大字白銀町南が丘1）",
        "department": "内科",
        "doctor": "中園　誠",
        "first": "",
        "name": "中園内科クリニック",
        "postal_code": "031-0011",
        "revisit": "○",
        "tel": "0178-71-1138",
        "url": "https://nakazononaikakurinikku.hp.gogo.jp/pc/"
    },
    {
        "address": "青森県八戸市東白山台2-34-16",
        "cooperation": "",
        "department": "眼科",
        "doctor": "濱端　久仁子",
        "first": "",
        "name": "白山台くに眼科",
        "postal_code": "039-1111",
        "revisit": "○",
        "tel": "0178-51-9251",
        "url": "https://8-92eye.com/"
    },
    {
        "address": "青森県八戸市江陽1丁目18-5",
        "cooperation": "八戸市立市民病院（八戸市田向三丁目1-1）",
        "department": "小児科\nアレルギー科\n循環器科",
        "doctor": "中山　信吾",
        "first": "",
        "name": "医療法人　中山こどもクリニック",
        "postal_code": "031-0801",
        "revisit": "○",
        "tel": "0178-47-9900",
        "url": "http://www.nakayamakids.com/"
    },
    {
        "address": "青森県三戸郡南部町沖田面字千刈47-1",
        "cooperation": "",
        "department": "眼科",
        "doctor": "陰山　俊之\n陰山　美樹",
        "first": "",
        "name": "医療法人湘洋会ナンブクリニック",
        "postal_code": "039-0105",
        "revisit": "○",
        "tel": "0179-20-6161",
        "url": "http://www.nanbu-clin.jp/"
    },
    {
        "address": "青森県三戸郡南部町大字苫米地字白山堂13-2",
        "cooperation": "",
        "department": "内科",
        "doctor": "原田　英也",
        "first": "○",
        "name": "医療法人はらだクリニック",
        "postal_code": "039-0802",
        "revisit": "○",
        "tel": "0178-60-1661",
        "url": "https://harada-clinic-nanbu.com/"
    },
    {
        "address": "青森県八戸市南類家2-16-15アーバンパレスD",
        "cooperation": "八戸市立市民病院（八戸市田向三丁目1-1）\n八戸赤十字病院（八戸市大字田面木字中明戸2）",
        "department": "内科",
        "doctor": "上田　亮",
        "first": "○",
        "name": "いやしのもりクリニック",
        "postal_code": "031-0004",
        "revisit": "○",
        "tel": "0178-32-0705",
        "url": ""
    },
    {
        "address": "青森県八戸市田向5丁目21-25",
        "cooperation": "八戸市立市民病院（八戸市田向三丁目1-1）\n八戸赤十字病院（八戸市大字田面木字中明戸2）\n青森労災病院（八戸市大字白銀町南が丘1）",
        "department": "糖尿病内科",
        "doctor": "葛西　伸彦",
        "first": "",
        "name": "かさい糖尿病内科クリニック",
        "postal_code": "031-0011",
        "revisit": "○",
        "tel": "0178-51-6336",
        "url": ""
    },
    {
        "address": "青森県八戸市柏崎4丁目14番48号",
        "cooperation": "",
        "department": "脳神経外科\n内科",
        "doctor": "乙供　大樹",
        "first": "",
        "name": "おっとも脳神経クリニック",
        "postal_code": "031-0081",
        "revisit": "○",
        "tel": "0178-41-1115",
        "url": ""
    },
    {
        "address": "青森県八戸市湊高台5-20-18",
        "cooperation": "",
        "department": "耳鼻科",
        "doctor": "橋本　敏光\n飯田　健二",
        "first": "",
        "name": "橋本耳鼻科クリニック",
        "postal_code": "031-8823",
        "revisit": "○",
        "tel": "0178-33-8711",
        "url": ""
    },
    {
        "address": "青森県八戸市新井田西2丁目7-8",
        "cooperation": "",
        "department": "内科",
        "doctor": "村田　貞幸",
        "first": "",
        "name": "村田内科",
        "postal_code": "031-0816",
        "revisit": "○",
        "tel": "0178-25-0888",
        "url": "http://murata-naika@herb.ocn.ne.jp"
    },
    {
        "address": "青森県八戸市城下4丁目19番33号",
        "cooperation": "",
        "department": "内科\n循環器内科",
        "doctor": "平賀　仁",
        "first": "",
        "name": "医療法人英仁会平賀クリニック",
        "postal_code": "031-0072",
        "revisit": "○",
        "tel": "0178-38-3755",
        "url": "http://hiragacl.byoinnavi.jp/pc/"
    },
    {
        "address": "青森県八戸市新井田西2丁目1-25",
        "cooperation": "八戸市立市民病院（八戸市田向三丁目1-1）\n青森労災病院（八戸市大字白銀町南が丘1）",
        "department": "泌尿器科\n皮膚科\n内科",
        "doctor": "池田　成徳",
        "first": "",
        "name": "八戸新井田クリニック",
        "postal_code": "031-0816",
        "revisit": "○",
        "tel": "0178-25-7070",
        "url": ""
    },
    {
        "address": "青森県八戸市馬場町2",
        "cooperation": "",
        "department": "眼科",
        "doctor": "髙橋奈美子\n遠藤朋子\n原田幸子",
        "first": "",
        "name": "医療法人浅水眼科馬場町眼科クリニック",
        "postal_code": "031-0074",
        "revisit": "○",
        "tel": "0178-22-3462",
        "url": "http://www.myclinic.ne.jp/babachoganka/"
    },
    {
        "address": "青森県八戸市南類家1丁目17-2",
        "cooperation": "",
        "department": "内科",
        "doctor": "原　徹",
        "first": "",
        "name": "八戸生協診療所",
        "postal_code": "031-0004",
        "revisit": "〇",
        "tel": "0178-44-0278",
        "url": "https://www.hachinohe-iryou.jp/"
    },
    {
        "address": "青森県八戸市大字本徒士町10-2",
        "cooperation": "",
        "department": "内科",
        "doctor": "阿部一郎",
        "first": "",
        "name": "ABEビルクリニック",
        "postal_code": "031-0052",
        "revisit": "○",
        "tel": "0178-22-7927",
        "url": ""
    },
    {
        "address": "青森県八戸市売市一丁目４－５",
        "cooperation": "八戸赤十字病院(青森県八戸市田面木字中明戸２)",
        "department": "内科・循環器科",
        "doctor": "伴　哲雄",
        "first": "",
        "name": "伴内科心臓血管クリニック",
        "postal_code": "031-0073",
        "revisit": "〇",
        "tel": "0178-22-9016",
        "url": "http://ban21.byoinnavi.jp/pc/"
    },
    {
        "address": "青森県八戸市番町9-5　協栄八戸番町ビル2階",
        "cooperation": "",
        "department": "精神科\n心療内科",
        "doctor": "岡田　元",
        "first": "",
        "name": "八戸マナクリニック",
        "postal_code": "031-0031",
        "revisit": "○",
        "tel": "0178-20-7565",
        "url": "http://hachinohe-manna-clinic.com/"
    },
    {
        "address": "青森県八戸市柏崎2丁目6-3",
        "cooperation": "",
        "department": "皮膚科",
        "doctor": "杉山　泰子",
        "first": "",
        "name": "医療法人真秀会薄場皮膚科医院",
        "postal_code": "031-0081",
        "revisit": "○",
        "tel": "0178-22-5393",
        "url": ""
    },
    {
        "address": "青森県八戸市東白山台2-34-16",
        "cooperation": "",
        "department": "内科\n消化器科",
        "doctor": "牛尾　晶",
        "first": "",
        "name": "うしお内科クリニック",
        "postal_code": "039-1111",
        "revisit": "○",
        "tel": "0178-70-1191",
        "url": ""
    },
    {
        "address": "青森県三戸郡田子町大字田子字前田2-17",
        "cooperation": "",
        "department": "内科",
        "doctor": "田中　裕之\n奥山　佐治",
        "first": "○",
        "name": "田子診療所",
        "postal_code": "039-0201",
        "revisit": "○",
        "tel": "0179-32-3171",
        "url": "http://www.town.takko.lg.jp/sections/index.cfm?footer=4"
    },
    {
        "address": "青森県八戸市田向4丁目13-9",
        "cooperation": "",
        "department": "呼吸器内科\nアレルギー科",
        "doctor": "鹿内　俊樹",
        "first": "",
        "name": "健呼吸器内科アレルギー科クリニック",
        "postal_code": "031-0011",
        "revisit": "○",
        "tel": "0178-51-8520",
        "url": ""
    },
    {
        "address": "青森県八戸市湊高台6-6-20",
        "cooperation": "",
        "department": "小児科",
        "doctor": "冨本　和彦",
        "first": "○",
        "name": "とみもと小児科クリニック",
        "postal_code": "031-0823",
        "revisit": "○",
        "tel": "0178-32-5525",
        "url": "https://tomimoto.jp/"
    },
    {
        "address": "青森県八戸市柏崎4-15-41",
        "cooperation": "",
        "department": "内科\n胃腸科",
        "doctor": "清川　哲丸",
        "first": "",
        "name": "きよかわ内科胃・大腸クリニック",
        "postal_code": "031-0081",
        "revisit": "○",
        "tel": "0178-44-0555",
        "url": ""
    },
    {
        "address": "青森県八戸市一番町2丁目3-6",
        "cooperation": "",
        "department": "内科\n眼科",
        "doctor": "向井田　春海\n向井田　泰子",
        "first": "",
        "name": "はるみ眼科循環器内科クリニック",
        "postal_code": "039-1102",
        "revisit": "○",
        "tel": "0178-70-1863",
        "url": "https://www.harumi-c.com/"
    },
    {
        "address": "青森県八戸市南郷大字島守字梨子ノ久保２５－３",
        "cooperation": "八戸市立市民病院（青森県八戸市田向三丁目1番1号）\n八戸赤十字病院（青森県八戸市大字田面木字中明戸2番\n地）",
        "department": "内科",
        "doctor": "中里　和彦",
        "first": "",
        "name": "八戸市国民健康保険南郷診療所",
        "postal_code": "031-0202",
        "revisit": "○",
        "tel": "0178-82-2211",
        "url": "https://www.city.hachinohe.aomori.jp/shisetsuannai/kenko_fukushi/8787.html"
    },
    {
        "address": "青森県八戸市田向5丁目22-1",
        "cooperation": "八戸赤十字病院（八戸市大字田面木字中明戸2）\n青森労災病院（八戸市大字白銀町南が丘1）",
        "department": "泌尿器科\n内科\n透析",
        "doctor": "城戸　啓治",
        "first": "○",
        "name": "きどクリニック",
        "postal_code": "031-0011",
        "revisit": "○",
        "tel": "0178-80-7211",
        "url": ""
    },
    {
        "address": "青森県八戸市石堂1-5-25",
        "cooperation": "田名部　誠悦 八戸市立市民病院（青森県八戸市田向三丁目1番1号）",
        "department": "整形外科\nリウマチ科\nリハビリテー\nション科",
        "doctor": "",
        "first": "",
        "name": "田名部整形外科",
        "postal_code": "039-1165",
        "revisit": "○",
        "tel": "0178-29-1000",
        "url": "http://www.tanabuseikei.com/haik/index.php"
    },
    {
        "address": "青森県八戸市吹上2丁目10-5",
        "cooperation": "八戸市立市民病院（青森県八戸市田向三丁目1番1号）",
        "department": "眼科",
        "doctor": "久保　勝文",
        "first": "",
        "name": "吹上眼科",
        "postal_code": "031-0003",
        "revisit": "○",
        "tel": "0178-72-3372",
        "url": ""
    },
    {
        "address": "青森県五所川原市字岩木町12番地3",
        "cooperation": "",
        "department": "検討中",
        "doctor": "",
        "first": "",
        "name": "つがる西北五広域連合つがる総合病院",
        "postal_code": "037-0074",
        "revisit": "○",
        "tel": "0173-35-3111",
        "url": "http://www.tsgren.jp/tsugaru-general-hospital/"
    },
    {
        "address": "青森県五所川原市金木町朝日山453",
        "cooperation": "つがる総合病院（青森県五所川原市岩木町12-3）",
        "department": "内科\n整形外科",
        "doctor": "菅原和夫\n他５名",
        "first": "",
        "name": "（医）慈仁会　尾野病院",
        "postal_code": "037-0202",
        "revisit": "○",
        "tel": "0173-53-2071",
        "url": "http://ono-hospital.com/index.html"
    },
    {
        "address": "青森県つがる市木造若竹5番地",
        "cooperation": "",
        "department": "内科",
        "doctor": "一戸淳\n他担当医",
        "first": "",
        "name": "医療法人誠仁会尾野病院",
        "postal_code": "038-3194",
        "revisit": "○",
        "tel": "0173-42-2133",
        "url": "http://www.aomori-seijinkai.or.jp/onohp.html"
    },
    {
        "address": "青森県五所川原市字中平井町142-1",
        "cooperation": "つがる総合病院（青森県五所川原市岩木町12-3）",
        "department": "内科\n消化器内科\n外科\n整形外科",
        "doctor": "田村英嗣\n百田行雄\n高橋　秀\n斎藤　信哉",
        "first": "○",
        "name": "医療法人白生会胃腸病院",
        "postal_code": "037-0066",
        "revisit": "○",
        "tel": "0173-34-6111",
        "url": "http://www.hakuseikai.com/"
    },
    {
        "address": "青森県つがる市木造浮巣45-1",
        "cooperation": "",
        "department": "内科\n小児科",
        "doctor": "宮重　希典",
        "first": "○",
        "name": "みやしげ内科クリニック",
        "postal_code": "038-3141",
        "revisit": "○",
        "tel": "0173-49-1123",
        "url": ""
    },
    {
        "address": "青森県五所川原市鎌谷町163-1",
        "cooperation": "つがる総合病院（青森県五所川原市岩木町12-3）",
        "department": "小児科\nアレルギー科",
        "doctor": "小友　勇人",
        "first": "〇",
        "name": "こどもクリニックおとも",
        "postal_code": "037-0033",
        "revisit": "〇",
        "tel": "0173-39-2151",
        "url": "http://www.otomo-clinic.net"
    },
    {
        "address": "青森県五所川原市字一ッ谷508-7",
        "cooperation": "つがる総合病院（五所川原市岩木町12-3）\n健生病院（弘前市扇町2-2-2）",
        "department": "内科",
        "doctor": "津川　信彦",
        "first": "",
        "name": "津軽保健生活協同組合健生五所川原診療所",
        "postal_code": "037-0016",
        "revisit": "○",
        "tel": "0173-35-2542",
        "url": ""
    },
    {
        "address": "青森県三沢市桜町3丁目10-14",
        "cooperation": "三沢市立三沢病院（三沢市大字堀口164-65）",
        "department": "内科\n小児科",
        "doctor": "樋口　茂樹",
        "first": "○",
        "name": "ひぐちクリニック",
        "postal_code": "033-0031",
        "revisit": "○",
        "tel": "0176-50-1441",
        "url": ""
    },
    {
        "address": "青森県三沢市松園町3-9-4",
        "cooperation": "",
        "department": "内科\n外科",
        "doctor": "近藤　真人",
        "first": "",
        "name": "まつぞのクリニック",
        "postal_code": "033-0037",
        "revisit": "○",
        "tel": "0176-52-5050",
        "url": ""
    },
    {
        "address": "青森県十和田市西三番町1-28",
        "cooperation": "",
        "department": "内科\n小児科",
        "doctor": "羽吉育子\n他担当医師2名",
        "first": "",
        "name": "育成会内科小児科",
        "postal_code": "034-0083",
        "revisit": "○",
        "tel": "0176-23-3821",
        "url": ""
    },
    {
        "address": "青森県上北郡七戸町字影津内98-1",
        "cooperation": "",
        "department": "内科\n外科\n整形外科",
        "doctor": "小野　正人\n他担当医師7名",
        "first": "",
        "name": "公立七戸病院",
        "postal_code": "039-2595",
        "revisit": "○",
        "tel": "0176-62-2105",
        "url": ""
    },
    {
        "address": "青森県十和田市西二十三番町1-1",
        "cooperation": "十和田市立中央病院（十和田市西十二番町14-8）",
        "department": "精神科\n心療内科\n内科",
        "doctor": "江渡　篤子\n高田　隼人\n河村　哲",
        "first": "",
        "name": "十和田済誠会病院",
        "postal_code": "034-0089",
        "revisit": "○",
        "tel": "0176-23-6251",
        "url": "https://towada-saiseikai-hp.jp/"
    },
    {
        "address": "青森県三沢市中央町三丁目11番3号",
        "cooperation": "",
        "department": "内科\n外科\n整形外科",
        "doctor": "小鹿雅博\n佐藤寿穂\n石田馨\n屋成信吾",
        "first": "",
        "name": "一般財団法人仁和会三沢中央病院",
        "postal_code": "033-0001",
        "revisit": "〇",
        "tel": "0176-57-1111",
        "url": "http://misawach-kojika.com"
    },
    {
        "address": "青森県十和田市元町東五丁目８番５４号",
        "cooperation": "",
        "department": "泌尿器科\n内科\n外科",
        "doctor": "鵜浦　有弘\n中林　敬",
        "first": "",
        "name": "十和田北クリニック",
        "postal_code": "034-0003",
        "revisit": "○",
        "tel": "0176-21-3741",
        "url": "http://www.m-c-seishokai.jp/index_to.html"
    },
    {
        "address": "青森県上北郡横浜町字寺下81-2",
        "cooperation": "公立野辺地病院（野辺地町字鳴沢9-12）\nむつ総合病院（むつ市小川町1-2-8）",
        "department": "内科",
        "doctor": "本多　廣行\n石木　基夫",
        "first": "○",
        "name": "菜の花クリニック",
        "postal_code": "039-4145",
        "revisit": "○",
        "tel": "0175-76-1787",
        "url": ""
    },
    {
        "address": "青森県上北郡野辺地町字下小中野18-8",
        "cooperation": "",
        "department": "内科\n泌尿器科",
        "doctor": "各科担当医師 十和田市立中央病院（十和田市西十二番町14-8）",
        "first": "○\n（対応予定）",
        "name": "のへじクリニック",
        "postal_code": "039-3152",
        "revisit": "○",
        "tel": "0175-64-7333",
        "url": ""
    },
    {
        "address": "青森県下北郡佐井村大字佐井字大佐井川目38-1",
        "cooperation": "大間病院（大間町大字大間字大間平20番地78）",
        "department": "整形外科",
        "doctor": "大竹　進",
        "first": "",
        "name": "さいクリニック",
        "postal_code": "039-4711",
        "revisit": "○",
        "tel": "0175-33-2424",
        "url": ""
    },
    {
        "address": "青森県むつ市小川町1丁目2番8号",
        "cooperation": "",
        "department": "各診療科",
        "doctor": "橋爪　正\n他担当医師",
        "first": "",
        "name": "むつ総合病院",
        "postal_code": "035-8601",
        "revisit": "○",
        "tel": "0175-22-2111",
        "url": "http://www.hospital-mutsu.or.jp/"
    },
    {
        "address": "青森県下北郡大間町大字大間字大間平20-78",
        "cooperation": "",
        "department": "内科",
        "doctor": "平野　貴大\n他５担当医師",
        "first": "",
        "name": "国民健康保険大間病院",
        "postal_code": "039-4601",
        "revisit": "○",
        "tel": "0175-37-2105",
        "url": "http://www.shimokita-mc.jp/oma/"
    },
    {
        "address": "青森県むつ市緑ヶ丘6-16",
        "cooperation": "",
        "department": "小児科\nアレルギー科",
        "doctor": "千葉　喜代志 むつ総合病院（むつ市小川町1丁目2-8）",
        "first": "",
        "name": "ちば小児科アレルギー科クリニック",
        "postal_code": "035-0066",
        "revisit": "○",
        "tel": "0175-33-8001",
        "url": "http://www.chibaclinic.jp/"
    },
    {
        "address": "青森県下北郡東通村大字砂子又字里17番地2",
        "cooperation": "",
        "department": "内科",
        "doctor": "川原田　恒\n他担当医師2名",
        "first": "○\n今後対応検討）",
        "name": "東通村診療所",
        "postal_code": "039-4222",
        "revisit": "○",
        "tel": "0175-28-5111",
        "url": "https://higashidori.jadecom.or.jp/"
    }
]